X,Y,MarkerID,Name,Alternate_Name,Type,Facilities_List,Recreation_Activity_List,Address,SUBURB,Link,Disability_Accessible,Playground,Playground_Accessible,Playground_Shaded,Wifi,BBQ,Picnic_Tables,Drinking_Fountains,Toilets_Daylight,Toilets_24hrs,Toilets_Restricted,Showers,Baby_Change,Bicycle_Walk_Paths,Bike_Racks,Exercise_Equipment,Sports_Field_Lighting,Soccer,AFL,Basketball,Tennis,Cricket,Cycling,Swimming,Skateboarding,Watercraft,Rugby,Gaelic,Softball,CENTROID_X,CENTROID_Y,OBJECTID,LAISKEY,Area_m,Park_Class,Ward,Notes
130.841790058741964,-12.38088136555028,PK1,Sunset Park, ,Park,"Accessible,Baby Change,BBQ,Bicycle/Walking Paths,Exercise Equipment,Picnic Tables,Playground,Playground - Shaded,Toilets - 24 Hours",,3 Aralia St Nightcliff,Nightcliff,http://www.darwin.nt.gov.au/,Yes,Yes,No,Yes,No,Yes,Yes,No,No,Yes,No,No,Yes,Yes,No,Yes,No,No,No,No,No,No,No,No,No,No,No,No,No,130.841741819595,-12.3808479564034,254,550     09371,13600,Regional,Chan, 
130.855736453840223,-12.375770206906978,PK2,Nightcliff Foreshore, ,Park,"Accessible,Baby Change,BBQ,Bicycle/Walking Paths,Drinking Fountains,Exercise Equipment,Picnic Tables,Playground,Playground - Shaded,Showers,Toilets - 24 Hours,Toilets - Daylight Hours",,315 Casuarina Dr Rapid Creek,Rapid Creek,http://www.darwin.nt.gov.au/,Yes,Yes,No,Yes,No,Yes,Yes,Yes,Yes,Yes,No,Yes,Yes,Yes,No,Yes,No,No,No,No,No,No,No,No,No,No,No,No,No,130.855900403713,-12.375708633975,255,550     09353,67900,Regional,Chan, 
130.848446885366627,-12.376842719756693,PK3,Nightcliff Pool,Nightcliff Café,Swimming Pool,"Accessible,Baby Change,BBQ,Bicycle/Bike Racks,Bicycle/Walking Paths,Drinking Fountains,Picnic Tables,Showers,Toilets - 24 Hours,Toilets - Daylight Hours,Wifi",Swimming,259 Casuarina Dr Nightcliff,Nightcliff,http://www.darwin.nt.gov.au/,Yes,No,No,No,Yes,Yes,Yes,Yes,Yes,Yes,No,Yes,Yes,Yes,Yes,No,No,No,No,No,No,No,No,Yes,No,No,No,No,No,130.848331070075,-12.3769866830413,256,550     08657,16700,Regional,Chan, 
130.84772334672175,-12.378760128402401,PK4,Bill Bell Park,Jacaranda Park,Park,"Accessible,Playground",,7 Jacaranda Ave Nightcliff,Nightcliff,http://www.darwin.nt.gov.au/,Yes,Yes,No,No,No,No,No,No,No,No,No,No,No,No,No,No,No,No,No,No,Yes,No,No,No,No,No,No,No,No,130.847697288994,-12.379006114028,257,550     01199,4800,Neighbourhood,Chan, 
130.874289516824859,-12.372666711050154,PK5,Cahill Park, ,Park,Accessible,,23 Croker St Nakara,Nakara,http://www.darwin.nt.gov.au/,Yes,No,No,No,No,No,No,No,No,No,No,No,No,No,No,No,No,No,No,No,No,No,No,No,No,No,No,No,,130.874280909772,-12.37265446,258,550     05544,2800,Neighbourhood,Richardson, 
130.874567820935482,-12.37194464621594,PK6,Croker Park, ,Park,Accessible,,29 Buchanan Tce Nakara,Nakara,http://www.darwin.nt.gov.au/,Yes,No,No,No,No,No,No,No,No,No,No,No,No,No,No,No,No,No,No,No,No,No,No,No,No,No,No,No,,130.874565319579,-12.3719612918394,259,550     05512,1220,Neighbourhood,Richardson, 
130.872634395697645,-12.36635231496807,PK7,Airlie Park, ,Park,"Accessible,Playground",,8 Airlie Cct Brinkin,Brinkin,http://www.darwin.nt.gov.au/,Yes,Yes,No,No,No,No,No,No,No,No,No,No,No,No,No,No,No,No,No,No,No,No,No,No,No,No,No,No,,130.872600654717,-12.3663100075097,260,550     08998,9150,Neighbourhood,Richardson, 
130.873818687180517,-12.365836444987607,PK8,Ellengowan Park,Trower Park,Park,"Accessible,Bicycle/Walking Paths",,17 Airlie Cct Brinkin,Brinkin,http://www.darwin.nt.gov.au/,Yes,No,No,No,No,No,No,No,No,No,No,No,No,Yes,No,No,No,No,No,No,No,No,No,No,No,No,No,No,,130.873697082069,-12.3658445080603,261,550     08963,2970,Neighbourhood,Richardson, 
130.874908035346635,-12.371255794734296,PK9,Buchanan Park, ,Park,Accessible,,7 Copeland Cres Nakara,Nakara,http://www.darwin.nt.gov.au/,Yes,No,No,No,No,No,No,No,No,No,No,No,No,No,No,No,No,No,No,No,No,No,No,No,No,No,No,No,,130.874906565239,-12.3712659296484,262,550     05446,1430,Neighbourhood,Richardson, 
130.874526745004943,-12.364403224776781,PK10,Calvert Park, ,Park,"Accessible,Playground",,12 Undoolya St Tiwi,Tiwi,http://www.darwin.nt.gov.au/,Yes,Yes,No,No,No,No,No,No,No,No,No,No,No,No,No,No,No,No,No,No,No,No,No,No,No,No,No,No,,130.874526462737,-12.3644030048062,263,550     07247,4290,Neighbourhood,Richardson, 
130.890735889604173,-12.368476455843426,PK11,Kailis Park, ,Park,"Accessible,Playground",,25 Kailis St Wanguri,Wanguri,http://www.darwin.nt.gov.au/,Yes,Yes,No,No,No,No,No,No,No,No,No,No,No,No,No,No,No,No,No,No,No,No,No,No,No,No,No,No,,130.890735918859,-12.368476413964,264,550     06663,3880,Neighbourhood,Richardson, 
130.88874305211209,-12.354981014547764,PK12,Tommy Lyons Park, ,Park,"Accessible,Bicycle/Walking Paths",,17 Dawarra Cres Lyons,Lyons,http://www.darwin.nt.gov.au/,Yes,No,No,No,No,No,No,No,No,No,No,No,No,Yes,No,No,No,No,No,No,No,No,No,No,No,No,No,No,,130.88880142586,-12.3549945789596,265,550     10279,4740,Neighbourhood,Richardson, 
130.88979776225446,-12.36078582586596,PK13,Matla Park,Diditma Park,Park,"Accessible,Bicycle/Walking Paths,Playground",,58 Matla Cres Lyons,Lyons,http://www.darwin.nt.gov.au/,Yes,Yes,No,No,No,No,No,No,No,No,No,No,No,Yes,No,No,No,No,No,No,No,No,No,No,No,No,No,No,,130.889810869035,-12.3608085670276,266,550     10071,3780,Neighbourhood,Richardson, 
130.89113083303576,-12.363856803582319,PK14,Dangoerra Park, ,Park,"Accessible,Bicycle/Walking Paths,Playground",,2 Dangoerra St Lyons,Lyons,http://www.darwin.nt.gov.au/,Yes,Yes,No,No,No,No,No,No,No,No,No,No,No,Yes,No,No,No,No,No,No,No,No,No,No,No,No,No,No,,130.891174549588,-12.3639142909074,267,550     09956,4440,Neighbourhood,Richardson, 
130.893980086714066,-12.365520313694187,PK15,Blackburn St Park, ,Park,"Accessible,Bicycle/Walking Paths",,14 Blackburn St Muirhead,Muirhead,http://www.darwin.nt.gov.au/,Yes,No,No,No,No,No,No,No,No,No,No,No,No,Yes,No,No,No,No,No,No,No,No,No,No,No,No,No,No,,130.893559072693,-12.3651958844535,268,550     10962,10300,District,Richardson, 
130.896231270594029,-12.365254824690632,PK16,Withnall Street Park, ,Park,Accessible,,10 Dreier St Muirhead,Muirhead,http://www.darwin.nt.gov.au/,Yes,No,No,No,No,No,No,No,No,No,No,No,No,No,No,No,No,No,No,No,No,No,No,No,No,No,No,No,,130.896239849356,-12.3652439734255,269,550     11235,13000,District,Richardson,Also Lot  11229
130.887059345891885,-12.35201301817251,PK17,Bilingga Park, ,Park,"Accessible,Bicycle/Walking Paths,Playground",,10 Bilingga St Lyons,Lyons,http://www.darwin.nt.gov.au/,Yes,Yes,No,No,No,No,No,No,No,No,No,No,No,Yes,No,No,No,No,No,No,No,No,No,No,No,No,No,No,,130.887102462611,-12.3520227967065,270,550     10353,7700,Neighbourhood,Richardson, 
130.891939067722944,-12.358000828400019,PK18,Bowditch St Park, ,Park,"Accessible,Bicycle/Walking Paths",,31 Bowditch St Muirhead,Muirhead,http://www.darwin.nt.gov.au/,Yes,No,No,No,No,No,No,No,No,No,No,No,No,Yes,No,No,No,No,No,No,No,No,No,No,No,No,No,No,,130.891778874311,-12.358007210181,271,550     10734,16600,District,Richardson, 
130.876951094380871,-12.360824898576329,PK19,Marraki Park, ,Park,Accessible,,25 Marrakai St Tiwi,Tiwi,http://www.darwin.nt.gov.au/,Yes,No,No,No,No,No,No,No,No,No,No,No,No,No,No,No,No,No,No,No,No,No,No,No,No,No,No,No,,130.876997408313,-12.3607918377284,272,550     07177,5280,Neighbourhood,Richardson, 
130.877120233338019,-12.359995427047171,PK20,Glencoe Park, ,Park,Accessible,,60 Rocklands Dr Tiwi,Tiwi,http://www.darwin.nt.gov.au/,Yes,No,No,No,No,No,No,No,No,No,No,No,No,No,No,No,No,No,No,No,No,No,No,No,No,No,No,No,,130.877123508071,-12.3599927111943,273,550     07063,1770,Neighbourhood,Richardson, 
130.882223969259201,-12.363254913588399,PK21,Koolpinyah Park, ,Park,"Accessible,Playground",,19 Koolpinyah Cres Tiwi,Tiwi,http://www.darwin.nt.gov.au/,Yes,Yes,No,No,No,No,No,No,No,No,No,No,No,No,No,No,No,No,No,No,No,No,No,No,No,No,No,No,,130.882237799193,-12.3632343125534,274,550     06994,4340,Neighbourhood,Richardson, 
130.87755347758366,-12.363017889508125,PK22,Tiwi Oval,Tiwi Park,Oval,"Accessible,Playground,Toilets - Restricted Access","AFL,Cricket",41 Tiwi Gdns Tiwi,Tiwi,http://www.darwin.nt.gov.au/,Yes,Yes,No,No,No,No,No,No,No,No,Yes,No,No,No,No,No,No,No,Yes,No,No,Yes,No,No,No,No,No,No,No,130.877851691219,-12.3629972368293,275,550     07006,55400,District,Richardson, 
130.883516248841886,-12.361214176040754,PK23,Dorisvale Park, ,Park,"Accessible,Playground",,33 Dorisvale Cres Tiwi,Tiwi,http://www.darwin.nt.gov.au/,Yes,Yes,No,No,No,No,No,No,No,No,No,No,No,No,No,No,No,No,No,No,No,No,No,No,No,No,No,No,,130.883597707827,-12.3613020273092,276,550     06893,10800,Neighbourhood,Richardson, 
130.87872955562824,-12.365468689872021,PK24,Kapalga Park, ,Park,"Accessible,Playground",,24 Wangalara St Tiwi,Tiwi,http://www.darwin.nt.gov.au/,Yes,Yes,No,No,No,No,No,No,No,No,No,No,No,No,No,No,No,No,No,No,No,No,No,No,No,No,No,No,,130.878729341824,-12.3654687639343,277,550     07355,4700,Neighbourhood,Richardson, 
130.887510257378665,-12.369357894288488,PK25,Wanguri Oval,Wanguri Park,Oval,"Accessible,Playground,Showers,Toilets - Restricted Access",Cricket,56 Lyons St Wanguri,Wanguri,http://www.darwin.nt.gov.au/,Yes,Yes,No,No,No,No,No,No,No,No,Yes,Yes,No,No,No,No,No,No,No,No,No,Yes,No,No,No,No,No,No,No,130.887465810555,-12.3693482104438,278,550     06392,50200,District,Richardson, 
130.876241651270817,-12.370239067863945,PK26,Nakara Oval,Nakara Park,Oval,"Accessible,Playground,Showers,Toilets - Restricted Access",Soccer,49 Nakara Tce Nakara,Nakara,http://www.darwin.nt.gov.au/,Yes,Yes,No,No,No,No,No,No,No,No,Yes,Yes,No,No,No,No,No,Yes,Yes,No,No,No,No,No,No,No,No,No,No,130.876332507429,-12.3700581540632,279,550     05317,34100,District,Richardson, 
130.884364114001727,-12.374234523001181,PK27,Casuarina Pool,Gsell Park,Swimming Pool,"Accessible,BBQ,Bicycle/Bike Racks,Drinking Fountains,Picnic Tables,Playground,Showers,Toilets - Daylight Hours","Swimming,Basketball",17 Gsell St Casuarina,Casuarina,http://www.darwin.nt.gov.au/,Yes,Yes,No,No,No,Yes,Yes,Yes,Yes,No,No,Yes,No,No,Yes,No,No,No,No,Yes,No,No,No,Yes,No,No,No,No,No,130.884556902687,-12.3743072825583,280,550     06249,28000,Regional,Richardson, 
130.885232790280412,-12.371214506515447,PK28,Strele Park, ,Park,"Accessible,Playground",,8 Strele Cres Wanguri,Wanguri,http://www.darwin.nt.gov.au/,Yes,Yes,No,No,No,No,No,No,No,No,No,No,No,No,No,No,No,No,No,No,No,No,No,No,No,No,No,No,,130.885240693128,-12.3711808293553,281,550     06830,3560,Neighbourhood,Richardson, 
130.878914261961597,-12.372567492905169,PK29,Johnson Park, ,Park,"Accessible,Playground",,26 Witherden St Nakara,Nakara,http://www.darwin.nt.gov.au/,Yes,Yes,No,No,No,No,No,No,No,No,No,No,No,No,No,No,No,No,No,No,No,No,No,No,No,No,No,No,,130.878914550431,-12.3725672950637,282,550     05050,4290,Neighbourhood,Richardson, 
130.879871845300386,-12.374230904770133,PK30,Casuarina Library, ,Public Library,"Accessible,Bicycle/Bike Racks,Wifi",,17 Bradshaw Tce Casuarina,Casuarina,http://www.darwin.nt.gov.au/,Yes,No,No,No,Yes,No,No,No,No,No,No,No,No,No,Yes,No,No,No,No,No,No,No,No,No,No,No,No,No,,130.879930795119,-12.3742684181861,283,550     04975,6410,District,Richardson, 
130.874002064696555,-12.373358478667948,PK31,Cahill Greenbelt, ,Park,Accessible,,41 Cahill Cres Nakara,Nakara,http://www.darwin.nt.gov.au/,Yes,No,No,No,No,No,No,No,No,No,No,No,No,No,No,No,No,No,No,No,No,No,No,No,No,No,No,No,,130.873999442722,-12.3733743479939,284,550     05487,1310,Neighbourhood,Richardson, 
130.874639874718554,-12.368613724897687,PK32,Copeland Park, ,Park,"Accessible,Playground",,15 Griffe St Nakara,Nakara,http://www.darwin.nt.gov.au/,Yes,Yes,No,No,No,No,No,No,No,No,No,No,No,No,No,No,No,No,No,No,No,No,No,No,No,No,No,No,,130.874640589,-12.3686126487309,285,550     05368,4490,Neighbourhood,Richardson, 
130.879280124688052,-12.368078004238644,PK33,Harwood Park,"Adcock Park, Bell Park",Park,"Accessible,Playground",,28 Rattray St Nakara,Nakara,http://www.darwin.nt.gov.au/,Yes,Yes,No,No,No,No,No,No,No,No,No,No,No,No,No,No,No,No,No,No,No,No,No,No,No,No,No,No,,130.879278788821,-12.3680767674471,286,550     05188,3160,Neighbourhood,Richardson, 
130.879145179695001,-12.377917588307181,PK34,Britomart Park, ,Park,"Accessible,Playground",,20 Britomart Gdns Alawa,Alawa,http://www.darwin.nt.gov.au/,Yes,Yes,No,No,No,No,No,No,No,No,No,No,No,No,No,No,No,No,No,No,No,No,No,No,No,No,No,No,,130.879145308942,-12.3779175272759,287,550     02394,4490,Neighbourhood,Richardson, 
130.879754468330106,-12.374966973301674,PK35,Casuarina Child Centre, ,Childcare Centre,"Accessible,Drinking Fountains,Playground,Playground - Shaded,Toilets - Restricted Access",,11 Bradshaw Tce Casuarina,Casuarina,http://www.darwin.nt.gov.au/,Yes,Yes,No,Yes,No,No,No,Yes,No,No,Yes,No,No,No,No,No,No,No,No,No,No,No,No,No,No,No,No,No,No,130.879754279705,-12.3749671551543,288,550     07720,3260,District,Richardson, 
130.874376966726658,-12.379181705501979,PK36,Alawa Park, ,Park,Accessible,,40 Alawa Cres Alawa,Alawa,http://www.darwin.nt.gov.au/,Yes,No,No,No,No,No,No,No,No,No,No,No,No,No,No,No,No,No,No,No,No,No,No,No,No,No,No,No,,130.874405447838,-12.3791584624167,289,550     02067,2390,District,Richardson, 
130.874152039106235,-12.378332529056998,PK37,Wellington Park, ,Park,Accessible,,40 Wellington Pde Alawa,Alawa,http://www.darwin.nt.gov.au/,Yes,No,No,No,No,No,No,No,No,No,No,No,No,No,No,No,No,No,No,No,No,No,No,No,No,No,No,No,,130.874139199885,-12.3783429790025,290,550     02165,1240,Neighbourhood,Richardson, 
130.87890227677687,-12.380241337847234,PK38,Stedcombe Park, ,Park,"Accessible,Playground",,38 Stedcombe St Alawa,Alawa,http://www.darwin.nt.gov.au/,Yes,Yes,No,No,No,No,No,No,No,No,No,No,No,No,No,No,No,No,No,No,No,No,No,No,No,No,No,No,,130.878882847968,-12.3802004920299,291,550     02471,5180,Neighbourhood,Richardson, 
130.874183473200077,-12.381159579235721,PK39,Stobo Park, ,Park,"Accessible,Playground",,25 Stobo Cres Alawa,Alawa,http://www.darwin.nt.gov.au/,Yes,Yes,No,No,No,No,No,No,No,No,No,No,No,No,No,No,No,No,No,No,No,No,No,No,No,No,No,No,,130.874153997418,-12.3812063638986,292,550     02126,2350,Neighbourhood,Richardson, 
130.882178112120869,-12.382186738920746,PK40,Colster Park, ,Park,"Accessible,Playground",,20 Colster Cres Wagaman,Wagaman,http://www.darwin.nt.gov.au/,Yes,Yes,No,No,No,No,No,No,No,No,No,No,No,No,No,No,No,No,No,No,No,No,No,No,No,No,No,No,,130.882193025483,-12.3820786510086,293,550     04029,9340,Neighbourhood,Richardson, 
130.872217895875252,-12.385745077597692,PK41,Cameron Park, ,Park,"Accessible,Playground",,15 Cameron Cres Jingili,Jingili,http://www.darwin.nt.gov.au/,Yes,Yes,No,No,No,No,No,No,No,No,No,No,No,No,No,No,No,No,No,No,No,No,No,No,No,No,No,No,,130.872184449873,-12.3856792987797,294,550     02795,6970,Neighbourhood,Chan, 
130.874778526817693,-12.384923319027944,PK42,Killian Park, ,Park,"Accessible,Playground",,8 Kilian Cres Jingili,Jingili,http://www.darwin.nt.gov.au/,Yes,Yes,No,No,No,No,No,No,No,No,No,No,No,No,No,No,No,No,No,No,No,No,No,No,No,No,No,No,,130.874775519434,-12.3849259949506,295,550     02886,1760,Neighbourhood,Chan, 
130.878273521637681,-12.38739624674966,PK43,Thornton Park, ,Park,"Accessible,Playground",,28 Thornton Cres Moil,Moil,http://www.darwin.nt.gov.au/,Yes,Yes,No,No,No,No,No,No,No,No,No,No,No,No,No,No,No,No,No,No,No,No,No,No,No,No,No,No,,130.87827421563,-12.3873961432251,296,550     03328,4930,Neighbourhood,Chan, 
130.874628207376844,-12.388494093508859,PK44,Jingili Oval,Jingili Park,Oval,"Accessible,Drinking Fountains,Showers,Toilets - Restricted Access","AFL,Soccer",26 Jingili Tce Jingili,Jingili,http://www.darwin.nt.gov.au/,Yes,No,No,No,No,No,No,Yes,No,No,Yes,Yes,No,No,No,No,No,Yes,Yes,No,No,No,No,No,No,No,No,No,No,130.874781581842,-12.3885376986546,297,550     09295,28000,District,Chan, 
130.871411998148886,-12.388649774592883,PK45,Gaden Park,Darren Prior Park,Park,"Accessible,Playground",,29 Gaden Cct Jingili,Jingili,http://www.darwin.nt.gov.au/,Yes,Yes,No,No,No,No,No,No,No,No,No,No,No,No,No,No,No,No,No,No,No,No,No,No,No,No,No,No,,130.871427252833,-12.3885743023454,298,550     03060,2490,Neighbourhood,Chan, 
130.87944412229507,-12.393985927792777,PK46,Linde Park, ,Park,"Accessible,Playground",,2 Linde St Moil,Moil,http://www.darwin.nt.gov.au/,Yes,Yes,No,No,No,No,No,No,No,No,No,No,No,No,No,No,No,No,No,No,No,No,No,No,No,No,No,No,,130.879442406269,-12.3939902238288,299,550     03760,3450,Neighbourhood,Chan, 
130.897024258301798,-12.377156330719536,PK47,Grasslands Park,Baroalba Park,Park,Accessible,,8 Grassland Cres Leanyer,Leanyer,http://www.darwin.nt.gov.au/,Yes,No,No,No,No,No,No,No,No,No,No,No,No,No,No,No,No,No,No,No,No,No,No,No,No,No,No,No,,130.897030871678,-12.3771017042073,300,685     04942,5060,Neighbourhood,Richardson, 
130.89169081070807,-12.382850378893567,PK48,Wulagi Greenbelt,Brolga Greenbelt,Park,"Accessible,Bicycle/Walking Paths",,116 Lee Point Rd Wulagi,Wulagi,http://www.darwin.nt.gov.au/,Yes,No,No,No,No,No,No,No,No,No,No,No,No,Yes,No,No,No,No,No,No,No,No,No,No,No,No,No,No,,130.891962452624,-12.3830580225402,301,685     00950,22500,District,Waters, 
130.896812050394516,-12.383039647989227,PK49,Wulagi Oval,Wulagi Park,Oval,"Accessible,Baby Change,Bicycle/Walking Paths,Playground,Showers,Toilets - Restricted Access","AFL,Cricket",148 Vanderlin Dr Wulagi,Wulagi,http://www.darwin.nt.gov.au/,Yes,Yes,No,No,No,No,No,No,No,No,Yes,Yes,Yes,Yes,No,No,No,No,Yes,No,No,Yes,No,No,No,No,No,No,No,130.897080781078,-12.382989854299,302,685     01586,64600,District,Waters, 
130.890774841358365,-12.384990105720975,PK50,Kestrel Park, ,Park,Accessible,,26 Kestrel Cct Wulagi,Wulagi,http://www.darwin.nt.gov.au/,Yes,No,No,No,No,No,No,No,No,No,No,No,No,No,No,No,No,No,No,No,No,No,No,No,No,No,No,No,,130.890774647464,-12.3849894573053,303,685     06847,3310,Neighbourhood,Waters, 
130.897063199556499,-12.38584871700411,PK51,Wulagi Greenbelt,Wendys Park,Park,"Accessible,Bicycle/Walking Paths,Playground",,67 Matthews Rd Wulagi,Wulagi,http://www.darwin.nt.gov.au/,Yes,Yes,No,No,No,No,No,No,No,No,No,No,No,Yes,No,No,No,No,No,No,No,No,No,No,No,No,No,No,,130.897035388048,-12.3859054651461,304,685     01345,11533,Neighbourhood,Waters, 
130.894733349119917,-12.38699055597802,PK52,Grebe Park, ,Park,"Accessible,Playground",,6 Grebe Cres Wulagi,Wulagi,http://www.darwin.nt.gov.au/,Yes,Yes,No,No,No,No,No,No,No,No,No,No,No,No,No,No,No,No,No,No,No,No,No,No,No,No,No,No,,130.894802577186,-12.3869554822907,305,685     06846,8680,Neighbourhood,Waters, 
130.889148942626576,-12.387901232174531,PK53,Anula Greenbelt, ,Park,"Accessible,Bicycle/Walking Paths",,74 Lee Point Rd Anula,Anula,http://www.darwin.nt.gov.au/,Yes,No,No,No,No,No,No,No,No,No,No,No,No,Yes,No,No,No,No,No,No,No,No,No,No,No,No,No,No,,130.88904751516,-12.3879020909718,306,685     00398,18900,District,Waters, 
130.89542214033861,-12.390320184666622,PK54,Yanyula Greenbelt,Matthews Park,Park,"Accessible,Bicycle/Walking Paths",,96 Yanyula Dr Anula,Anula,http://www.darwin.nt.gov.au/,Yes,No,No,No,No,No,No,No,No,No,No,No,No,Yes,No,No,No,No,No,No,No,No,No,No,No,No,No,No,,130.895348810907,-12.3903787437187,307,685     00645,13100,District,Waters, 
130.890950126402942,-12.38989583504048,PK55,Yanyula Park,Anula Oval,Park,"Accessible,Drinking Fountains,Playground,Playground - Accessible,Playground - Shaded,Toilets - Restricted Access",,59 Yanyula Dr Anula,Anula,http://www.darwin.nt.gov.au/,Yes,Yes,Yes,Yes,No,No,No,Yes,No,No,Yes,No,No,No,No,No,No,No,No,No,No,No,No,No,No,No,No,No,No,130.891031217105,-12.3906064391819,308,685     07019,95900,District,Waters, 
130.887775899313226,-12.39213183746552,PK56,Driffield Park,"Driffield Greenbelt, Yanyula Greenbelt",Park,"Accessible,Bicycle/Walking Paths,Playground",,36 Yanyula Dr Anula,Anula,http://www.darwin.nt.gov.au/,Yes,Yes,No,No,No,No,No,No,No,No,No,No,No,Yes,No,No,No,No,No,No,No,No,No,No,No,No,No,No,,130.88756791459,-12.3924163021924,309,685     00071,29800,District,Waters, 
130.889132367553486,-12.371619774967288,PK57,Haritos Park, ,Park,"Accessible,Playground",,39 Haritos St Wanguri,Wanguri,http://www.darwin.nt.gov.au/,Yes,Yes,No,No,No,No,No,No,No,No,No,No,No,No,No,No,No,No,No,No,No,No,No,No,No,No,No,No,,130.889118644979,-12.3716198141046,310,550     06502,4330,Neighbourhood,Richardson, 
130.88719243066646,-12.367137113426169,PK58,Mazlin Park, ,Park,"Accessible,Playground",,5 Mazlin St Wanguri,Wanguri,http://www.darwin.nt.gov.au/,Yes,Yes,No,No,No,No,No,No,No,No,No,No,No,No,No,No,No,No,No,No,No,No,No,No,No,No,No,No,,130.887188743062,-12.3671178288484,311,550     06754,4730,Neighbourhood,Richardson, 
130.889095700994631,-12.373946641297563,PK59,Harmanis Park, ,Park,Accessible,,10 Harmanis St Wanguri,Wanguri,http://www.darwin.nt.gov.au/,Yes,No,No,No,No,No,No,No,No,No,No,No,No,No,No,No,No,No,No,No,No,No,No,No,No,No,No,No,,130.889093365124,-12.3739494362794,312,550     06552,3477,Neighbourhood,Richardson, 
130.886990049715507,-12.375675816617878,PK60,Fong Park, ,Park,"Accessible,Playground",,6 Fong St Wanguri,Wanguri,http://www.darwin.nt.gov.au/,Yes,Yes,No,No,No,No,No,No,No,No,No,No,No,No,No,No,No,No,No,No,No,No,No,No,No,No,No,No,,130.88694557309,-12.3757377029055,313,550     06333,5850,Neighbourhood,Richardson, 
130.884221275321806,-12.377737383190555,PK61,Amsterdam Park, ,Park,"Accessible,Playground",,32 Amsterdam Cct Wagaman,Wagaman,http://www.darwin.nt.gov.au/,Yes,Yes,No,No,No,No,No,No,No,No,No,No,No,No,No,No,No,No,No,No,No,No,No,No,No,No,No,No,,130.88422230659,-12.3777560100975,314,550     04504,6410,Neighbourhood,Richardson, 
130.887501767958497,-12.379268569250122,PK62,Groote Park, ,Park,"Accessible,Playground",,10 Groote St Wagaman,Wagaman,http://www.darwin.nt.gov.au/,Yes,Yes,No,No,No,No,No,No,No,No,No,No,No,No,No,No,No,No,No,No,No,No,No,No,No,No,No,No,,130.887548740515,-12.3792183027146,315,550     04266,9240,Neighbourhood,Richardson, 
130.885739966375525,-12.381267768278398,PK63,Wagaman Oval,Wagaman Park,Oval,"Accessible,Showers,Toilets - Restricted Access",AFL,10 Wagaman Pl Wagaman,Wagaman,http://www.darwin.nt.gov.au/,Yes,No,No,No,No,No,No,No,No,No,Yes,Yes,No,No,No,No,No,No,Yes,No,No,No,No,No,No,No,No,No,No,130.88566959061,-12.381315936301,316,550     04051,38000,District,Richardson, 
130.886740447183541,-12.3833550788514,PK64,Tasman Park, ,Park,"Accessible,Playground",,35 Tasman Cct Wagaman,Wagaman,http://www.darwin.nt.gov.au/,Yes,Yes,No,No,No,No,No,No,No,No,No,No,No,No,No,No,No,No,No,No,No,No,No,No,No,No,No,No,,130.886708628377,-12.3833442356661,317,550     04108,9130,Neighbourhood,Richardson, 
130.882028259364802,-12.385614471066395,PK65,Greenwood Park, ,Park,"Accessible,Playground",,11 Greenwood Cres Moil,Moil,http://www.darwin.nt.gov.au/,Yes,Yes,No,No,No,No,No,No,No,No,No,No,No,No,No,No,No,No,No,No,No,No,No,No,No,No,No,No,,130.882033354337,-12.385556738991,318,550     03470,7310,Neighbourhood,Richardson, 
130.885438816164111,-12.386458112193587,PK66,Lions Club Park,Lioness Park,Park,Accessible,,39 Greenwood Cres Moil,Moil,http://www.darwin.nt.gov.au/,Yes,No,No,No,No,No,No,No,No,No,No,No,No,No,No,No,No,No,No,No,No,No,No,No,No,No,No,No,,130.885454696669,-12.3864292942003,319,550     10499,3280,Neighbourhood,Chan, 
130.883880005059353,-12.388820052857666,PK67,Wilson Park, ,Park,"Accessible,Playground",,15 Wilson Cres Moil,Moil,http://www.darwin.nt.gov.au/,Yes,Yes,No,No,No,No,No,No,No,No,No,No,No,No,No,No,No,No,No,No,No,No,No,No,No,No,No,No,,130.883897953527,-12.3888310235714,320,550     03826,3550,Neighbourhood,Chan, 
130.881269415100263,-12.390099130686002,PK68,Moil Oval,Moil Park,Oval,"Accessible,Drinking Fountains,Playground,Showers,Toilets - Restricted Access",AFL,11 Budgen St Moil,Moil,http://www.darwin.nt.gov.au/,Yes,Yes,No,No,No,No,No,Yes,No,No,Yes,Yes,No,No,No,No,No,No,Yes,No,No,No,No,No,No,No,No,No,No,130.881140249449,-12.3900668922048,321,550     03554,41300,District,Chan, 
130.883011665832214,-12.393194996208534,PK69,Byrne Park, ,Park,"Accessible,Playground",,48 Byrne Cct Moil,Moil,http://www.darwin.nt.gov.au/,Yes,Yes,No,No,No,No,No,No,No,No,No,No,No,No,No,No,No,No,No,No,No,No,No,No,No,No,No,No,,130.88301049914,-12.3931940099096,322,550     03601,5540,Neighbourhood,Chan, 
130.881447454122252,-12.392358969585615,PK70,Butters Park, ,Park,"Accessible,Bicycle/Walking Paths,Playground",,21 Butters St Moil,Moil,http://www.darwin.nt.gov.au/,Yes,Yes,No,No,No,No,No,No,No,No,No,No,No,Yes,No,No,No,No,No,No,No,No,No,No,No,No,No,No,,130.881449497147,-12.3923579739185,323,550     03668,4780,Neighbourhood,Chan, 
130.900977688426593,-12.371137532542564,PK71,Baines Street, ,Park,Accessible,,17 Sanford St Leanyer,Leanyer,http://www.darwin.nt.gov.au/,Yes,No,No,No,No,No,No,No,No,No,No,No,No,No,No,No,No,No,No,No,No,No,No,No,No,No,No,No,,130.900979316929,-12.3711371604463,324,685     04736,803,Neighbourhood,Richardson, 
130.899984124191548,-12.377455018165042,PK72,Savannah Park, ,Park,"Accessible,Playground",,46 Baroalba St Leanyer,Leanyer,http://www.darwin.nt.gov.au/,Yes,Yes,No,No,No,No,No,No,No,No,No,No,No,No,No,No,No,No,No,No,No,No,No,No,No,No,No,No,,130.899983271985,-12.3775977097389,325,685     04071,16600,Neighbourhood,Richardson, 
130.899848392045698,-12.372255815419862,PK73,Baines Street, ,Park,Accessible,,30 Legune Ave Leanyer,Leanyer,http://www.darwin.nt.gov.au/,Yes,No,No,No,No,No,No,No,No,No,No,No,No,No,No,No,No,No,No,No,No,No,No,No,No,No,No,No,,130.89984845019,-12.37225554663,326,685     04642,1600,Neighbourhood,Richardson, 
130.90356140167134,-12.376452157706083,PK74,Parkside Park, ,Park,"Accessible,Playground",,5 Parkside Cres Leanyer,Leanyer,http://www.darwin.nt.gov.au/,Yes,Yes,No,No,No,No,No,No,No,No,No,No,No,No,No,No,No,No,No,No,No,No,No,No,No,No,No,No,,130.90359116811,-12.3764101416407,327,685     04287,13600,Neighbourhood,Richardson, 
130.902945795577352,-12.38088284392858,PK75,Killupa Park, ,Park,"Accessible,Playground",,172 Leanyer Dr Leanyer,Leanyer,http://www.darwin.nt.gov.au/,Yes,Yes,No,No,No,No,No,No,No,No,No,No,No,No,No,No,No,No,No,No,No,No,No,No,No,No,No,No,,130.902943072587,-12.3808487901177,328,685     06838,3260,Neighbourhood,Richardson, 
130.902656450693058,-12.385623163065715,PK76,Rosella Park, ,Park,"Accessible,Playground",,95 Wulagi Cres Wulagi,Wulagi,http://www.darwin.nt.gov.au/,Yes,Yes,No,No,No,No,No,No,No,No,No,No,No,No,No,No,No,No,No,No,No,No,No,No,No,No,No,No,,130.902663503073,-12.3856638695629,329,685     01425,5390,Neighbourhood,Waters, 
130.907133437089897,-12.388594516937099,PK77,Moody Park, ,Park,"Accessible,Bicycle/Walking Paths",,224 Vanderlin Dr Malak,Malak,http://www.darwin.nt.gov.au/,Yes,No,No,No,No,No,No,No,No,No,No,No,No,Yes,No,No,No,No,No,No,No,No,No,No,No,No,No,No,,130.907226972269,-12.3885610882634,330,685     01887,5960,Neighbourhood,Waters, 
130.906577951435253,-12.391737419847695,PK78,Bayfield Park,Dalwood Park,Park,"Accessible,Bicycle/Walking Paths,Playground",,9 Kraegen Ct Malak,Malak,http://www.darwin.nt.gov.au/,Yes,Yes,No,No,No,No,No,No,No,No,No,No,No,Yes,No,No,No,No,No,No,No,No,No,No,No,No,No,No,,130.905903283874,-12.3917882395081,331,685     02004,56300,Neighbourhood,Waters, 
130.902790843457893,-12.39450567363669,PK79,Malak Oval,Malak Park,Oval,"Accessible,BBQ,Bicycle/Walking Paths,Drinking Fountains,Playground,Showers,Sports Field Lighting,Toilets - Restricted Access",Soccer,13 Malak Cres Malak,Malak,http://www.darwin.nt.gov.au/,Yes,Yes,No,No,No,Yes,No,Yes,No,No,Yes,Yes,No,Yes,No,No,Yes,Yes,No,No,No,No,No,No,No,No,No,No,No,130.902709776123,-12.3944127031939,332,685     02284,92800,District,Waters, 
130.904384703797291,-12.395231484090122,PK80,Holzerland Park,Malak Hill,Park,"Accessible,Playground",Basketball,1 Holzerland St Malak,Malak,http://www.darwin.nt.gov.au/,Yes,Yes,No,No,No,No,No,No,No,No,No,No,No,No,No,No,No,No,No,Yes,No,No,No,No,No,No,No,No,No,130.90449706596,-12.3952362009503,333,685     03860,24200,District,Waters, 
130.9058218382917,-12.399253626338211,PK81,Abbot Park,Abbot Greenbelt,Park,"Accessible,Bicycle/Walking Paths",,35 Abbott Cres Malak,Malak,http://www.darwin.nt.gov.au/,Yes,No,No,No,No,No,No,No,No,No,No,No,No,Yes,No,No,No,No,No,No,No,No,No,No,No,No,No,No,,130.905875206472,-12.3991252412782,334,685     07052,5560,Neighbourhood,Waters, 
130.906932609267017,-12.395802733020261,PK82,Holzerland Green Belt,Housing Commission Park,Park,Accessible,,5 Bengal Ct Malak,Malak,http://www.darwin.nt.gov.au/,Yes,No,No,No,No,No,No,No,No,No,No,No,No,No,No,No,No,No,No,No,No,No,No,No,No,No,No,No,,130.906632891247,-12.3958730587311,335,685     06120,10290,Neighbourhood,Waters, 
130.873538234072697,-12.377063876755111,PK83,Mullen Park, ,Park,"Accessible,Playground",,67 Wellington Pde Alawa,Alawa,http://www.darwin.nt.gov.au/,Yes,Yes,No,No,No,No,No,No,No,No,No,No,No,No,No,No,No,No,No,No,No,No,No,No,No,No,No,No,,130.873561960761,-12.3770823455463,336,550     02308,2770,Neighbourhood,Richardson, 
130.871214072348437,-12.379028841784525,PK84,Young Park, ,Park,"Accessible,Playground",,28 Young Cres Alawa,Alawa,http://www.darwin.nt.gov.au/,Yes,Yes,No,No,No,No,No,No,No,No,No,No,No,No,No,No,No,No,No,No,No,No,No,No,No,No,No,No,,130.871235847089,-12.3790300585945,337,550     01993,3290,Neighbourhood,Richardson, 
130.85304881943452,-12.37966447694526,PK85,Ternau Park, ,Park,Accessible,,26 Ternau St Rapid Creek,Rapid Creek,http://www.darwin.nt.gov.au/,Yes,No,No,No,No,No,No,No,No,No,No,No,No,No,No,No,No,No,No,No,No,No,No,No,No,No,No,No,,130.853150361746,-12.3795806694313,338,550     00595,6180,Neighbourhood,Chan, 
130.870290794569314,-12.382673679537561,PK86,Bald Park, ,Park,"Accessible,Playground",,2 Bald Cct Alawa,Alawa,http://www.darwin.nt.gov.au/,Yes,Yes,No,No,No,No,No,No,No,No,No,No,No,No,No,No,No,No,No,No,No,No,No,No,No,No,No,No,,130.870195772377,-12.3826690299063,339,550     01912,3590,Neighbourhood,Richardson, 
130.868091691050523,-12.382554838675661,PK87,Bike Fun Park, ,Park,"Accessible,Bicycle/Walking Paths",,21 Lakeside Dr Alawa,Alawa,http://www.darwin.nt.gov.au/,Yes,No,No,No,No,No,No,No,No,No,No,No,No,Yes,No,No,No,No,No,No,No,No,No,No,No,No,No,No,,130.868038518205,-12.3827123140045,340,550     09075,43900,Neighbourhood,Richardson, 
130.868640909600089,-12.380469492436736,PK88,Lakeside Drive Community Garden, ,Community Facility,"Accessible,Bicycle/Walking Paths",,27 Lakeside Dr Alawa,Alawa,http://www.darwin.nt.gov.au/,Yes,No,No,No,No,No,No,No,No,No,No,No,No,Yes,No,No,No,No,No,No,No,No,No,No,No,No,No,No,No,130.86871411158,-12.3805117714354,341,550     08712,11800,District,Richardson, 
130.869689975071992,-12.386571159873382,PK89,Varney Park, ,Park,Accessible,,15 Varney Cres Jingili,Jingili,http://www.darwin.nt.gov.au/,Yes,No,No,No,No,No,No,No,No,No,No,No,No,No,No,No,No,No,No,No,No,No,No,No,No,No,No,No,,130.869698712288,-12.386570662526,342,550     02701,2660,Neighbourhood,Chan, 
130.86599739305538,-12.393659694764212,PK90,Gulnare Park, ,Park,Accessible,,16 Gulnare St Millner,Millner,http://www.darwin.nt.gov.au/,Yes,No,No,No,No,No,No,No,No,No,No,No,No,No,No,No,No,No,No,No,No,No,No,No,No,No,No,No,,130.865995459331,-12.3936636675203,343,550     01594,1310,Neighbourhood,Chan, 
130.856475598926693,-12.39330721114737,PK91,Harris Park, ,Park,Accessible,,1 Harris St Millner,Millner,http://www.darwin.nt.gov.au/,Yes,No,No,No,No,No,No,No,No,No,No,No,No,No,No,No,No,No,No,No,No,No,No,No,No,No,No,No,,701829.107196838,8629252.90259258,344,550     07639,2570,Neighbourhood,Chan, 
130.908954158720832,-12.395753902887593,PK92,Mueller Park,Chambers Park,Park,"Accessible,Bicycle/Walking Paths",,49 Mueller Rd Malak,Malak,http://www.darwin.nt.gov.au/,Yes,No,No,No,No,No,No,No,No,No,No,No,No,Yes,No,No,No,No,No,No,No,No,No,No,No,No,No,No,,130.908898990084,-12.395739084354,345,685     02312,9430,Neighbourhood,Waters, 
130.910782685285199,-12.396335090827463,PK93,Mahogany Park, ,Park,"Accessible,Playground",,46 Mueller Rd Karama,Karama,http://www.darwin.nt.gov.au/,Yes,Yes,No,No,No,No,No,No,No,No,No,No,No,No,No,No,No,No,No,No,No,No,No,No,No,No,No,No,,130.910756335025,-12.3963543372593,346,685     04872,21600,Neighbourhood,Waters, 
130.915821347358587,-12.398712445033269,PK94,Koolinda Park, ,Park,"Accessible,Exercise Equipment",,59 Koolinda Cres Karama,Karama,http://www.darwin.nt.gov.au/,Yes,No,No,No,No,No,No,No,No,No,No,No,No,No,No,Yes,No,No,No,No,No,No,No,No,No,No,No,No,,130.915813016309,-12.3988751930093,347,685     05326,14300,Neighbourhood,Waters, 
130.916771511788767,-12.403853240668214,PK95,Manunda Park, ,Park,"Accessible,Playground",,18 Manunda Tce Karama,Karama,http://www.darwin.nt.gov.au/,Yes,Yes,No,No,No,No,No,No,No,No,No,No,No,No,No,No,No,No,No,No,No,No,No,No,No,No,No,No,,130.91676910004,-12.4038641232973,348,685     06962,3150,Neighbourhood,Waters, 
130.916660126684747,-12.401624778482734,PK96,Karama Childcare Centre, ,Childcare Centre,"Accessible,Baby Change,Drinking Fountains,Playground - Shaded,Toilets - Restricted Access",,42 Kalymnos Dr Karama,Karama,http://www.darwin.nt.gov.au/,Yes,No,No,Yes,No,No,No,Yes,No,No,Yes,No,Yes,No,No,No,No,No,No,No,No,No,No,No,No,No,No,No,No,130.916660153116,-12.4016251101324,349,685     06990,2240,District,Waters, 
130.918786322004252,-12.405623756266106,PK97,Eaton Park, ,Park,"Accessible,Playground",,20 Eaton Pl Karama,Karama,http://www.darwin.nt.gov.au/,Yes,Yes,No,No,No,No,No,No,No,No,No,No,No,No,No,No,No,No,No,No,No,No,No,No,No,No,No,No,,130.918787479022,-12.4056242184592,350,685     06214,3320,Neighbourhood,Waters, 
130.917186687462561,-12.39718337293929,PK98,Whittle Park, ,Park,"Accessible,Playground",,8 Croton Ct Karama,Karama,http://www.darwin.nt.gov.au/,Yes,Yes,No,No,No,No,No,No,No,No,No,No,No,No,No,No,No,No,No,No,No,No,No,No,No,No,No,No,,130.917248452347,-12.3971514823552,351,685     05372,5430,Neighbourhood,Waters, 
130.91771727183513,-12.394649544375627,PK99,Dickinson Park, ,Park,"Accessible,Playground",,63 Mistletoe Cct Karama,Karama,http://www.darwin.nt.gov.au/,Yes,Yes,No,No,No,No,No,No,No,No,No,No,No,No,No,No,No,No,No,No,No,No,No,No,No,No,No,No,,130.917690907519,-12.394627512311,352,685     04405,5410,Neighbourhood,Waters, 
130.920996115083966,-12.406934359817701,PK100,Freycinet Park, ,Park,"Accessible,Playground",,11 Freycinet St Karama,Karama,http://www.darwin.nt.gov.au/,Yes,Yes,No,No,No,No,No,No,No,No,No,No,No,No,No,No,No,No,No,No,No,No,No,No,No,No,No,No,,130.921017479787,-12.4069539816978,353,685     06805,3410,Neighbourhood,Waters, 
130.919410516329151,-12.396853043886292,PK101,Hayball Park, ,Park,Accessible,,8 Kapok Ct Karama,Karama,http://www.darwin.nt.gov.au/,Yes,No,No,No,No,No,No,No,No,No,No,No,No,No,No,No,No,No,No,No,No,No,No,No,No,No,No,No,,130.919397844057,-12.3968135073769,354,685     05240,3380,Neighbourhood,Waters, 
130.847964353477579,-12.379312953923705,PK102,Bill Bell Park Tennis Courts,Jacaranda Park,Outdoor Recreation,Accessible,Tennis,1 Jacaranda Ave Nightcliff,Nightcliff,http://www.darwin.nt.gov.au/,Yes,No,No,No,No,No,No,No,No,No,No,No,No,No,No,No,No,No,No,No,Yes,No,No,No,No,No,No,No,No,130.84796370268,-12.3793081277104,355,550     01200,5380,Neighbourhood,Chan, 
130.851634888498864,-12.383011970704336,PK103,Nightcliff Oval, ,Oval,"Accessible,Playground,Playground - Shaded,Showers,Toilets - Restricted Access","AFL,Cricket",20 Oleander St Nightcliff,Nightcliff,http://www.darwin.nt.gov.au/,Yes,Yes,No,Yes,No,No,No,No,No,No,Yes,Yes,No,No,No,No,No,No,Yes,No,No,Yes,No,No,No,No,No,No,No,130.851686276182,-12.3829404442106,356,550     09242,38700,District,Chan, 
130.850584577538115,-12.382299639687867,PK104,Nightcliff Childcare Centre, ,Childcare Centre,"Accessible,Baby Change,Drinking Fountains,Playground,Playground - Shaded,Toilets - Restricted Access",,26 Oleander St Nightcliff,Nightcliff,http://www.darwin.nt.gov.au/,Yes,Yes,No,Yes,No,No,No,Yes,No,No,Yes,No,Yes,No,No,No,No,No,No,No,No,No,No,No,No,No,No,No,Yes,130.850595400262,-12.3823121869967,357,550     00403,1760,District,Chan, 
130.850990057994522,-12.382006275979577,PK105,Nightcliff Community Centre, ,Community Centre,Accessible,,18 Bauhinia St Nightcliff,Nightcliff,http://www.darwin.nt.gov.au/,Yes,No,No,No,No,No,No,No,No,No,No,No,No,No,No,No,No,No,No,No,No,No,No,No,No,No,No,No,No,130.851007253188,-12.3819966133981,358,550     09340,2850,District,Chan, 
130.854053755086113,-12.389781838359029,PK106,Easther Park,Craig Cresent Park,Park,"Accessible,Playground",,22 Craig Cres Coconut Grove,Coconut Grove,http://www.darwin.nt.gov.au/,Yes,Yes,No,No,No,No,No,No,No,No,No,No,No,No,No,No,No,No,No,No,No,No,No,No,No,No,No,No,,130.853994257412,-12.3898587973385,359,550     09126,4040,Neighbourhood,Chan, 
130.850000505746721,-12.391384373148288,PK107,Sunset Cove, ,Park,Accessible,,16 Athanasiou Rd Coconut Grove,Coconut Grove,http://www.darwin.nt.gov.au/,Yes,No,No,No,No,No,No,No,No,No,No,No,No,No,No,No,No,No,No,No,No,No,No,No,No,No,No,No,,130.850001976771,-12.3913844473433,360,550     09525,548,Neighbourhood,Chan, 
130.851154049721146,-12.391696732165345,PK108,Sunset Cove, ,Park,"Accessible,Playground",,5 Sunset Dr Coconut Grove,Coconut Grove,http://www.darwin.nt.gov.au/,Yes,Yes,No,No,No,No,No,No,No,No,No,No,No,No,No,No,No,No,No,No,No,No,No,No,No,No,No,No,,130.851164532766,-12.3917193181902,361,550     09554,1840,Neighbourhood,Chan, 
130.850189694665119,-12.394518979931533,PK109,Osterman Park, ,Park,"Accessible,Playground",,15 Ostermann St Coconut Grove,Coconut Grove,http://www.darwin.nt.gov.au/,Yes,Yes,No,No,No,No,No,No,No,No,No,No,No,No,No,No,No,No,No,No,No,No,No,No,No,No,No,No,,130.850191910696,-12.3945197930445,362,550     06211,3380,Neighbourhood,Chan, 
130.850172796772767,-12.391953899560912,PK110,Sunset Cove, ,Park,Accessible,,11 Athanasiou Rd Coconut Grove,Coconut Grove,http://www.darwin.nt.gov.au/,Yes,No,No,No,No,No,No,No,No,No,No,No,No,No,No,No,No,No,No,No,No,No,No,No,No,No,No,No,,130.850148740909,-12.3919673261763,363,550     09541,1310,Neighbourhood,Chan, 
130.853897276086087,-12.395891214218427,PK111,Old Mcmillans Park, ,Park,"Accessible,Playground",,90 Old Mcmillans Rd Coconut Grove,Coconut Grove,http://www.darwin.nt.gov.au/,Yes,Yes,No,No,No,No,No,No,No,No,No,No,No,No,No,No,No,No,No,No,No,No,No,No,No,No,No,No,,701546.401794506,8628968.71567673,364,550     09286,14400,District,Chan, 
130.854205738984859,-12.397758859755143,PK112,Nation Crescent Park, ,Park,"Accessible,Playground",,26 Nation Cres Coconut Grove,Coconut Grove,http://www.darwin.nt.gov.au/,Yes,Yes,No,No,No,No,No,No,No,No,No,No,No,No,No,No,No,No,No,No,No,No,No,No,No,No,No,No,,701584.171255398,8628769.8262654,365,550     09119,5530,Neighbourhood,Chan, 
130.853889512266733,-12.411368128916092,PK113,Tudawali Park, ,Park,"Accessible,Playground",,7 Tudawali St Ludmilla,Ludmilla,http://www.darwin.nt.gov.au/,Yes,Yes,No,No,No,No,No,No,No,No,No,No,No,No,No,No,No,No,No,No,No,No,No,No,No,No,No,No,,130.853883843758,-12.4113758120518,366,200     04639,1690,Neighbourhood,Lyons, 
130.840232347997727,-12.422027435601644,PK114,Fannie Bay Oval, ,Oval,"Accessible,Showers,Toilets - Restricted Access","Soccer,Gaelic",4 Waratah Cres Fannie Bay,Fannie Bay,http://www.darwin.nt.gov.au/,Yes,No,No,No,No,No,No,No,No,No,Yes,Yes,No,No,No,No,No,Yes,No,No,No,No,No,No,No,No,No,Yes,No,130.840220582938,-12.4220216821262,367,200     03729,40300,District,Lyons, 
130.837539071564805,-12.426570488854418,PK115,Allen Park, ,Park,"Accessible,Playground",,10 Allen St Fannie Bay,Fannie Bay,http://www.darwin.nt.gov.au/,Yes,Yes,No,No,No,No,No,No,No,No,No,No,No,No,No,No,No,No,No,No,No,No,No,No,No,No,No,No,,130.837511309998,-12.4265643485374,368,200     02868,3330,Neighbourhood,Lyons, 
130.837110004599765,-12.423786515354998,PK116,Aviators Park,Fannie Bay Park,Park,"Accessible,Bicycle/Walking Paths",,10 Fannie Bay Pl Fannie Bay,Fannie Bay,http://www.darwin.nt.gov.au/,Yes,No,No,No,No,No,No,No,No,No,No,No,No,Yes,No,No,No,No,No,No,No,No,No,No,No,No,No,No,,130.837077170952,-12.4238284962645,369,200     05187,6770,Regional,Lyons, 
130.843979322972956,-12.427804224075317,PK117,Clancy Park, ,Park,"Accessible,Playground",,5 Clancy St Fannie Bay,Fannie Bay,http://www.darwin.nt.gov.au/,Yes,Yes,No,No,No,No,No,No,No,No,No,No,No,No,No,No,No,No,No,No,No,No,No,No,No,No,No,No,,130.843979559288,-12.4278040707486,370,200     03117,1000,Neighbourhood,Lyons, 
130.839559376365003,-12.426876890974615,PK118,Smith Park,"Ross Smith Memorial Park, Giles St Park",Park,Accessible,,23 Giles St Fannie Bay,Fannie Bay,http://www.darwin.nt.gov.au/,Yes,No,No,No,No,No,No,No,No,No,No,No,No,No,No,No,No,No,No,No,No,No,No,No,No,No,No,No,,130.839558340132,-12.426876605027,371,200     02962,1320,Neighbourhood,Lyons, 
130.847059393909404,-12.429590962222933,PK119,Worgan Park, ,Park,"Accessible,Playground",,6 Worgan St Parap,Parap,http://www.darwin.nt.gov.au/,Yes,Yes,No,No,No,No,No,No,No,No,No,No,No,No,No,No,No,No,No,No,No,No,No,No,No,No,No,No,,130.847059439186,-12.4295906151779,372,200     03162,1110,Neighbourhood,Lyons, 
130.841948748198632,-12.430516164218337,PK120,Qantas Park,Macdonald Park,Park,"Accessible,Playground",,14 Macdonald St Parap,Parap,http://www.darwin.nt.gov.au/,Yes,Yes,No,No,No,No,No,No,No,No,No,No,No,No,No,No,No,No,No,No,No,No,No,No,No,No,No,No,,130.841947144714,-12.4305149557102,373,200     05411,5480,Neighbourhood,Lyons,
130.841589626641337,-12.428025891718072,PK121,Parap Pool, ,Swimming Pool,Accessible,Swimming,77 Ross Smith Ave Parap,Parap,http://www.darwin.nt.gov.au/,Yes,No,No,No,No,No,No,No,No,No,No,No,No,No,No,No,No,No,No,No,No,No,No,No,No,No,No,No,No,130.841254961459,-12.4280811987105,374,200     05292,38000,Regional,Lyons,
130.848068263457151,-12.4315973565449,PK122,Arafura Park, ,Park,"Accessible,Playground",,20 Ross Smith Ave Parap,Parap,http://www.darwin.nt.gov.au/,Yes,Yes,No,No,No,No,No,No,No,No,No,No,No,No,No,No,No,No,No,No,No,No,No,No,No,No,No,No,,130.848035108484,-12.4314914775673,375,200     07627,3480,District,Lyons, 
130.875328692131063,-12.393477088112375,PK123,Darwin General Cemetery, ,Cemetery,"Accessible,Bicycle/Walking Paths,Toilets - Daylight Hours",,221 Mcmillans Rd Jingili,Jingili,http://www.darwin.nt.gov.au/,Yes,No,No,No,No,No,No,No,Yes,No,No,No,No,Yes,No,No,No,No,No,No,No,No,No,No,No,No,No,No,No,130.875328328842,-12.3934774525487,376,550     04522,99700,Regional,Chan, 
130.875148327465098,-12.390646819831289,PK124,Borella Park, ,Park,"Accessible,Playground",,23 Borella Cct Jingili,Jingili,http://www.darwin.nt.gov.au/,Yes,Yes,No,No,No,No,No,No,No,No,No,No,No,No,No,No,No,No,No,No,No,No,No,No,No,No,No,No,,130.87514832884,-12.3906470718252,377,550     03146,4080,Neighbourhood,Chan, 
130.893959399538772,-12.393769386705289,PK125,McMillans Road Greenbelt,"Yanula Greenbelt, Jade Park",Park,"Accessible,Bicycle/Walking Paths,Playground",,74 Yanyula Dr Anula,Anula,http://www.darwin.nt.gov.au/,Yes,Yes,No,No,No,No,No,No,No,No,No,No,No,Yes,No,No,No,No,No,No,No,No,No,No,No,No,No,No,,130.893968138664,-12.3936762632877,378,685     00887,16971,Neighbourhood,Waters, 
130.893994527279801,-12.400616538861909,PK126,Tomaris Park,Carnoustie Park,Park,"Accessible,Playground",,48 Carnoustie Cct Marrara,Marrara,http://www.darwin.nt.gov.au/,Yes,Yes,No,No,No,No,No,No,No,No,No,No,No,No,No,No,No,No,No,No,No,No,No,No,No,No,No,No,,130.893657823664,-12.4007221746876,379,055     03794,8450,Neighbourhood,Waters, 
130.874995631900106,-12.398461308044245,PK127,Rapid Creek Reserve - South, ,Park,Accessible,,216 Mcmillans Rd Marrara,Marrara,http://www.darwin.nt.gov.au/,Yes,No,No,No,No,No,No,No,No,No,No,No,No,No,No,No,No,No,No,No,No,No,No,No,No,No,No,No,,130.875391530943,-12.3988781987642,380,055     04295,199000,Regional,Lyons, 
130.857475638192625,-12.396547099886108,PK128,Bagot Oval,Bagot Park,Oval,"Accessible,Playground,Playground - Shaded,Toilets - Restricted Access",Soccer,55 Mcmillans Rd Millner,Millner,http://www.darwin.nt.gov.au/,Yes,Yes,No,Yes,No,No,No,No,No,No,Yes,No,No,No,No,No,No,No,No,No,No,No,No,No,No,No,No,No,No,701929.13643595,8628902.34455811,381,055     01676,96900,Regional,Chan, 
130.855658815809932,-12.420491523796446,PK129,Mosec Park, ,Park,"Accessible,Playground",Basketball,16 Mosec St Ludmilla,Ludmilla,http://www.darwin.nt.gov.au/,Yes,Yes,No,No,No,No,No,No,No,No,No,No,No,No,No,No,No,No,No,Yes,No,No,No,No,No,No,No,No,,130.855659510294,-12.4204921644745,382,200     05679,2350,Neighbourhood,Lyons, 
130.850038476030534,-12.426849886543927,PK130,Gilbert Park, ,Park,"Accessible,Playground",,10 Gilbert St Ludmilla,Ludmilla,http://www.darwin.nt.gov.au/,Yes,Yes,No,No,No,No,No,No,No,No,No,No,No,No,No,No,No,No,No,No,No,No,No,No,No,No,No,No,,130.850038476857,-12.426849830204,383,200     03262,1000,Neighbourhood,Lyons, 
130.857140269810884,-12.424843310089226,PK131,Narrows Vacant Block,Fleming Park,Park,Accessible,,5 Narrows Rd The Narrows,The Narrows,http://www.darwin.nt.gov.au/,Yes,No,No,No,No,No,No,No,No,No,No,No,No,No,No,No,No,No,No,No,No,No,No,No,No,No,No,No,,130.857139131863,-12.4248439158945,384,200     03622,1800,Neighbourhood,Lyons, 
130.860870320025555,-12.426815530428561,PK132,Dwyer Park, ,Park,"Accessible,Playground",,3 Shiers St The Narrows,The Narrows,http://www.darwin.nt.gov.au/,Yes,Yes,No,No,No,No,No,No,No,No,No,No,No,No,No,No,No,No,No,No,No,No,No,No,No,No,No,No,,130.860750447862,-12.4267711297613,385,200     04221,18400,Neighbourhood,Lyons, 
130.860118764779315,-12.429764741354621,PK133,City of Darwin Operations Centre, ,Council Facility,Accessible,,65 Bishop St Woolner,Woolner,http://www.darwin.nt.gov.au/,Yes,No,No,No,No,No,No,No,No,No,No,No,No,No,No,No,No,No,No,No,No,No,No,No,No,No,No,No,,130.860420889242,-12.4290901054904,386,200     05037,50700,District,Lyons, 
130.852891134492495,-12.43009108657607,PK134,Lores Bonney Park,Price Park,Park,"Accessible,Exercise Equipment,Playground",,43 May St Parap,Parap,http://www.darwin.nt.gov.au/,Yes,Yes,No,No,No,No,No,No,No,No,No,No,No,No,No,Yes,No,No,No,No,No,No,No,No,No,No,No,No,,130.852817314132,-12.4301038178873,387,200     07206,4680,Neighbourhood,Lyons, 
130.850925548954194,-12.431442916821025,PK135,Ginty Mcginness Park,McGinness Park,Park,Accessible,,69 May St Parap,Parap,http://www.darwin.nt.gov.au/,Yes,No,No,No,No,No,No,No,No,No,No,No,No,No,No,No,No,No,No,No,No,No,No,No,No,No,No,No,,130.85091106406,-12.4314426460084,388,200     07214,1800,Neighbourhood,Lyons, 
130.857874464692628,-12.435866173222749,PK136,Seascapes Park,Fanning Drive Park,Park,Accessible,,8 Fanning Dr Bayview,Bayview,http://www.darwin.nt.gov.au/,Yes,No,No,No,No,No,No,No,No,No,No,No,No,No,No,No,No,No,No,No,No,No,No,No,No,No,No,No,,130.857900826438,-12.4358769324905,389,200     06152,3900,Neighbourhood,Lyons, 
130.85936093700434,-12.434942288132625,PK137,Latrobe Street Park, ,Park,"Accessible,Playground",,9 Perth St Bayview,Bayview,http://www.darwin.nt.gov.au/,Yes,Yes,No,No,No,No,No,No,No,No,No,No,No,No,No,No,No,No,No,No,No,No,No,No,No,No,No,No,,130.859393841232,-12.434948125551,390,200     07391,915,Neighbourhood,Lyons, 
130.850917800644737,-12.436460412655965,PK138,Brian Chong Wee Park, ,Park,"Accessible,Playground",,9 Sariago Ct Woolner,Woolner,http://www.darwin.nt.gov.au/,Yes,Yes,No,No,No,No,No,No,No,No,No,No,No,No,No,No,No,No,No,No,No,No,No,No,No,No,No,No,,130.85090829635,-12.436424124084,391,200     06781,5120,Neighbourhood,Lyons, 
130.854326358241138,-12.439257001228043,PK139,Stoddart Park, ,Park,"Accessible,Playground",,12 Stoddart Dr Bayview,Bayview,http://www.darwin.nt.gov.au/,Yes,Yes,No,No,No,No,No,No,No,No,No,No,No,No,No,No,No,No,No,No,No,No,No,No,No,No,No,No,,130.854311907286,-12.4392874485768,392,200     06270,2750,Neighbourhood,Lyons, 
130.85650359617739,-12.440726932566424,PK140,Half Moon Park, ,Park,Accessible,,30 Bayview Bvd Bayview,Bayview,http://www.darwin.nt.gov.au/,Yes,No,No,No,No,No,No,No,No,No,No,No,No,No,No,No,No,No,No,No,No,No,No,No,No,No,No,No,,130.856476589002,-12.440696655029,393,200     06254,1880,Neighbourhood,Lyons, 
130.841037372670058,-12.437441113405278,PK141,Pioneer Park, ,Park,Accessible,,4 Goyder Rd Parap,Parap,http://www.darwin.nt.gov.au/,Yes,No,No,No,No,No,No,No,No,No,No,No,No,No,No,No,No,No,No,No,No,No,No,No,No,No,No,No,,130.840855002768,-12.4375002709657,394,200     07454,3120,Neighbourhood,Lyons, 
130.840426950278442,-12.437012139200274,PK142,Palmerston Cemetery,Pioneer Cemetery,Cemetery,Accessible,,9 Wilkinson St Parap,Parap,http://www.darwin.nt.gov.au/,Yes,No,No,No,No,No,No,No,No,No,No,No,No,No,No,No,No,No,No,No,No,No,No,No,No,No,No,No,,130.840385674841,-12.4369663486463,395,200     03506,9434,Regional,Lyons, 
130.840054253949717,-12.43545880981522,PK143,Parap Childcare Centre, ,Childcare Centre,"Accessible,Baby Change,Drinking Fountains,Playground,Playground - Shaded,Toilets - Restricted Access",,4 Charlotte St Parap,Parap,http://www.darwin.nt.gov.au/,Yes,Yes,No,Yes,No,No,No,Yes,No,No,Yes,No,Yes,No,No,No,No,No,No,No,No,No,No,No,No,No,No,No,No,130.840057795759,-12.4354606840094,396,200     05224,1710,District,lYONS, 
130.840702939456605,-12.434688805195371,PK144,Weddell Park, ,Park,Accessible,,13 Weddell St Parap,Parap,http://www.darwin.nt.gov.au/,Yes,No,No,No,No,No,No,No,No,No,No,No,No,No,No,No,No,No,No,No,No,No,No,No,No,No,No,No,,130.840712477864,-12.4346892647631,397,200     04131,5030,Neighbourhood,Lyons, 
130.842753109908102,-12.438928030510574,PK145,Antony Memorial Park,Armidale Park,Park,"Accessible,Playground",,20 Armidale St Stuart Park,Stuart Park,http://www.darwin.nt.gov.au/,Yes,Yes,No,No,No,No,No,No,No,No,No,No,No,No,No,No,No,No,No,No,No,No,No,No,No,No,No,No,,130.842749851917,-12.4388917724353,398,200     03868,1080,Neighbourhood,Lyons, 
130.842835352829439,-12.436199778004209,PK146,Stokes Street Park, ,Park,Accessible,,159 Stuart Hwy Parap,Parap,http://www.darwin.nt.gov.au/,Yes,No,No,No,No,No,No,No,No,No,No,No,No,No,No,No,No,No,No,No,No,No,No,No,No,No,No,No,,130.842858463219,-12.4361225882686,399,200     03367,3480,Neighbourhood,Lyons, 
130.845113104606583,-12.434791284038441,PK147,Somerville Park,Stuart Highway Park,Park,Accessible,,175 Stuart Hwy Parap,Parap,http://www.darwin.nt.gov.au/,Yes,No,No,No,No,No,No,No,No,No,No,No,No,No,No,No,No,No,No,No,No,No,No,No,No,No,No,No,,130.844938980269,-12.4348224241723,400,200     05381,11800,District,Lyons, 
130.843317935686969,-12.444438812461422,PK148,Anne Park, ,Park,Accessible,,5 Anne St Stuart Park,Stuart Park,http://www.darwin.nt.gov.au/,Yes,No,No,No,No,No,No,No,No,No,No,No,No,No,No,No,No,No,No,No,No,No,No,No,No,No,No,No,,130.843319329045,-12.4444380267556,401,200     04116,3360,Neighbourhood,Lyons, 
130.846064563378519,-12.444222741745451,PK149,Stuart Park Childcare Centre, ,Childcare Centre,"Accessible,Baby Change,Drinking Fountains,Playground,Playground - Shaded,Toilets - Restricted Access",,36-38 Charles St Stuart Park,Stuart Park,http://www.darwin.nt.gov.au/,Yes,Yes,No,Yes,No,No,No,Yes,No,No,Yes,No,Yes,No,No,No,No,No,No,No,No,No,No,No,No,No,No,No,No,130.846064334847,-12.4442227444362,402,200     01889,1201,District,Lyons, 
130.847183159474525,-12.445781952569893,PK150,Beatrice Park, ,Park,Accessible,,2 Beatrice St Stuart Park,Stuart Park,http://www.darwin.nt.gov.au/,Yes,No,No,No,No,No,No,No,No,No,No,No,No,No,No,No,No,No,No,No,No,No,No,No,No,No,No,No,,130.84723164253,-12.4457945826159,403,200     03025,884,Neighbourhood,Lyons, 
130.842033176912366,-12.445561257218577,PK151,Bill Sullivan Park,Acacia Park,Park,"Accessible,Playground",,8 Westralia St Stuart Park,Stuart Park,http://www.darwin.nt.gov.au/,Yes,Yes,No,No,No,No,No,No,No,No,No,No,No,No,No,No,No,No,No,No,No,No,No,No,No,No,No,No,,130.841987466618,-12.4455390317018,404,200     01784,5460,District,Lyons, 
130.847504556749101,-12.448983407062638,PK152,Dinah Beach Oval,Dinah Park,Oval,"Accessible,Playground,Playground - Shaded,Showers",Cricket,34 Meigs Cres Stuart Park,Stuart Park,http://www.darwin.nt.gov.au/,Yes,Yes,No,Yes,No,No,No,No,No,No,No,Yes,No,No,No,No,No,No,No,No,No,Yes,No,No,No,No,No,No,No,130.84752538325,-12.448928032196,405,200     04784,24300,District,Lyons, 
130.84728329729441,-12.44618901342206,PK153,Meigs Park, ,Park,Accessible,,43 Meigs Cres Stuart Park,Stuart Park,http://www.darwin.nt.gov.au/,Yes,No,No,No,No,No,No,No,No,No,No,No,No,No,No,No,No,No,No,No,No,No,No,No,No,No,No,No,,130.847297682451,-12.4462151839492,406,200     04770,1280,Neighbourhood,Lyons, 
130.848824141094099,-12.445454667002796,PK154,Darwin Chinese Memorial Cemetery,Chinese Cemetery,Cemetery,Accessible,,42 Flinders Dr Stuart Park,Stuart Park,http://www.darwin.nt.gov.au/,Yes,No,No,No,No,No,No,No,No,No,No,No,No,No,No,No,No,No,No,No,No,No,No,No,No,No,No,No,,130.848817932622,-12.445464906263,407,200     05316,3820,Regional,Lyons, 
130.842851989736658,-12.451624307942813,PK155,Duke Street Park, ,Park,"Accessible,Playground",,12 Duke St Stuart Park,Stuart Park,http://www.darwin.nt.gov.au/,Yes,Yes,No,No,No,No,No,No,No,No,No,No,No,No,No,No,No,No,No,No,No,No,No,No,No,No,No,No,,130.843021416595,-12.4509940665981,408,200     03775,4300,Neighbourhood,Lyons,Also Lot 3736
130.843919468306325,-12.449056938074763,PK156,Que Noy Park,Gothenburg Park,Park,"Accessible,Picnic Tables",,8 Margaret St Stuart Park,Stuart Park,http://www.darwin.nt.gov.au/,Yes,No,No,No,No,No,Yes,No,No,No,No,No,No,No,No,No,No,No,No,No,No,No,No,No,No,No,No,No,,130.843674045111,-12.4489872428173,409,200     04705,8909,District,Lyons,Also Lots 4702 - 4
130.844979603213716,-12.45107501454356,PK157,Duke Street Reserve, ,Park,Accessible,,26 Duke St Stuart Park,Stuart Park,http://www.darwin.nt.gov.au/,Yes,No,No,No,No,No,No,No,No,No,No,No,No,No,No,No,No,No,No,No,No,No,No,No,No,No,No,No,,130.84494560955,-12.4510515675773,410,200     05221,7160,Neighbourhood,Lyons, 
130.841994972033689,-12.451901606220144,PK158,Duke Street Rainforest, ,Park,Accessible,,6 Duke St Stuart Park,Stuart Park,http://www.darwin.nt.gov.au/,Yes,No,No,No,No,No,No,No,No,No,No,No,No,No,No,No,No,No,No,No,No,No,No,No,No,No,No,No,,130.842031440823,-12.4519771935652,411,200     04363,6050,Regional,Lyons, 
130.83828181478097,-12.456396045997217,PK159,Wood Street Park,Wood Street Carpark,Park,Accessible,,97 Woods St Darwin City,Darwin City,http://www.darwin.nt.gov.au/,Yes,No,No,No,No,No,No,No,No,No,No,No,No,No,No,No,No,No,No,No,No,No,No,No,No,No,No,No,,130.838251523697,-12.4563683912344,412,200     05644,5210,District,Lyons, 
130.841725341535579,-12.460076296878729,PK160,Cavenagh Street Car Park,Stott Lane,Car Park,Accessible,,54 Cavenagh St Darwin City,Darwin City,http://www.darwin.nt.gov.au/,Yes,No,No,No,No,No,No,No,No,No,No,No,No,No,No,No,No,No,No,No,No,No,No,No,No,No,No,No,,130.84170587967,-12.4601194252649,413,200     05803,11000,District,Lyons, 
130.841749369819411,-12.458223052888455,PK162,Frog Hollow Park, ,Park,Accessible,,28 Lindsay St Darwin City,Darwin City,http://www.darwin.nt.gov.au/,Yes,No,No,No,No,No,No,No,No,No,No,No,No,No,No,No,No,No,No,No,No,No,No,No,No,No,No,No,,130.841761354652,-12.4582005535533,414,200     05665,11300,Neighbourhood,Lyons, 
130.921376421407331,-12.403557650810949,PK163,Brazil Park, ,Park,"Accessible,Playground",,1 Brazil Cres Karama,Karama,http://www.darwin.nt.gov.au/,Yes,Yes,No,No,No,No,No,No,No,No,No,No,No,No,No,No,No,No,No,No,No,No,No,No,No,No,No,No,,130.921351797637,-12.4035371030844,415,685     06963,3550,Neighbourhood,Waters, 
130.914815083203337,-12.404349733960505,PK164,Creber Park, ,Park,Accessible,,14 Creber Ct Karama,Karama,http://www.darwin.nt.gov.au/,Yes,No,No,No,No,No,No,No,No,No,No,No,No,No,No,No,No,No,No,No,No,No,No,No,No,No,No,No,,130.914811881089,-12.4043446100668,416,685     06551,899,Neighbourhood,Waters, 
130.922658490404331,-12.406647013084468,PK165,Peron Park, ,Park,Accessible,,9 Peron Ct Karama,Karama,http://www.darwin.nt.gov.au/,Yes,No,No,No,No,No,No,No,No,No,No,No,No,No,No,No,No,No,No,No,No,No,No,No,No,No,No,No,,130.922657278867,-12.4065670086178,417,685     06768,2320,Neighbourhood,Waters, 
130.844314038067893,-12.382688747239579,PK166,Kurrajong Park,Minjimarrmarr Park,Park,Accessible,,62 Kurrajong Cres Nightcliff,Nightcliff,http://www.darwin.nt.gov.au/,Yes,No,No,No,No,No,No,No,No,No,No,No,No,No,No,No,No,No,No,No,No,No,No,No,No,No,No,No,,130.844315154084,-12.3826882130573,418,550     04825,752,Neighbourhood,Chan, 
130.846034511024158,-12.382590356539559,PK167,Grevillea Park, ,Park,"Accessible,Playground",,35 Grevillea Cct Nightcliff,Nightcliff,http://www.darwin.nt.gov.au/,Yes,Yes,No,No,No,No,No,No,No,No,No,No,No,No,No,No,No,No,No,No,No,No,No,No,No,No,No,No,No,130.846169136357,-12.3827520892108,419,550     04900,2580,Neighbourhood,Chan,Also Lots 1480 & 1450
130.846184515456656,-12.385451642005886,PK168,Alf Blaser Park, ,Park,Accessible,,23 Hickory St Nightcliff,Nightcliff,http://www.darwin.nt.gov.au/,Yes,No,No,No,No,No,No,No,No,No,No,No,No,No,No,No,No,No,No,No,No,No,No,No,No,No,No,No,,130.846184819997,-12.3854516652526,420,550     04722,1950,Neighbourhood,Chan, 
130.833524575702626,-12.420769365165436,PK169,East Point Road Park, ,Park,Accessible,,116 East Point Rd Fannie Bay,Fannie Bay,http://www.darwin.nt.gov.au/,Yes,No,No,No,No,No,No,No,No,No,No,No,No,No,No,No,No,No,No,No,No,No,No,No,No,No,No,No,,130.833971066813,-12.4217130338307,421,200     05184,2500,District,Lyons,Also Lot 5184
130.834401286156861,-12.420293365569723,PK170,George Park, ,Park,"Accessible,Playground",,26 George Cres Fannie Bay,Fannie Bay,http://www.darwin.nt.gov.au/,Yes,Yes,No,No,No,No,No,No,No,No,No,No,No,No,No,No,No,No,No,No,No,No,No,No,No,No,No,No,,130.834482642397,-12.4200884220634,422,200     04800,11100,Neighbourhood,Lyons, 
130.833587628750109,-12.418716494990305,PK171,Bayview Park, ,Park,Accessible,,133 East Point Rd Fannie Bay,Fannie Bay,http://www.darwin.nt.gov.au/,Yes,No,No,No,No,No,No,No,No,No,No,No,No,No,No,No,No,No,No,No,No,No,No,No,No,No,No,No,,130.833521618216,-12.4186923386898,423,200     04799,12800,Neighbourhood,Lyons, 
130.836280903492479,-12.42307417741368,PK172,Ken Waters Memorial Park, ,Park,"Accessible,Bicycle/Walking Paths,Playground",Basketball,6 Elizabeth St Fannie Bay,Fannie Bay,http://www.darwin.nt.gov.au/,Yes,Yes,No,No,No,No,No,No,No,No,No,No,No,Yes,No,No,No,No,No,Yes,No,No,No,No,No,No,No,No,,130.836179616362,-12.4233741152662,424,200     05685,5730,District,Lyons, 
130.836977805779611,-12.422155874405856,PK173,Hinkler Park, ,Park,"Accessible,Playground",,22 Hinkler Cres Fannie Bay,Fannie Bay,http://www.darwin.nt.gov.au/,Yes,Yes,No,No,No,No,No,No,No,No,No,No,No,No,No,No,No,No,No,No,No,No,No,No,No,No,No,No,,130.836807383664,-12.421868061183,425,200     05054,7670,Neighbourhood,Lyons, 
130.836142714342401,-12.432865344504771,PK174,Vestey's Lagoon,Vesteys Foreshore,Park,"Accessible,Baby Change,BBQ,Bicycle/Walking Paths,Drinking Fountains,Picnic Tables,Playground,Playground - Shaded,Toilets - 24 Hours,Toilets - Daylight Hours",,39 East Point Rd Fannie Bay,Fannie Bay,http://www.darwin.nt.gov.au/,Yes,Yes,No,Yes,No,Yes,Yes,Yes,Yes,Yes,No,No,Yes,Yes,No,No,No,No,No,No,No,No,No,No,No,No,No,No,No,130.835733293371,-12.4332135946864,426,200     05764,204900,District,Lyons, 
130.833813144837592,-12.422309521760718,PK175,Fannie Bay Foreshore, ,Park,"Accessible,Bicycle/Walking Paths,Playground",,131 East Point Rd Fannie Bay,Fannie Bay,http://www.darwin.nt.gov.au/,Yes,Yes,No,No,No,No,No,No,No,No,No,No,No,Yes,No,No,No,No,No,No,No,No,No,No,No,No,No,No,,130.83390300588,-12.4227053480204,427,200     05975,36900,District,Lyons, 
130.833300522595493,-12.448109584966131,PK176,Gardens Oval Two,Palmerston Park Oval,Oval,"Accessible,Showers","AFL,Soccer,Cricket,Gaelic,Softball",56 Gilruth Ave The Gardens,The Gardens,http://www.darwin.nt.gov.au/,Yes,No,No,No,No,No,No,No,No,No,No,Yes,No,No,No,No,No,Yes,Yes,No,No,Yes,No,No,No,No,No,Yes,Yes,130.833335155,-12.4481083409647,428,200     05943,29500,Regional,Lyons,Cricket Practise Nets
130.834355138242671,-12.448136306869737,PK177,Gardens Cemetery, ,Cemetery,Accessible,,191 Gardens Rd The Gardens,The Gardens,http://www.darwin.nt.gov.au/,Yes,No,No,No,No,No,No,No,No,No,No,No,No,No,No,No,No,No,No,No,No,No,No,No,No,No,No,No,,130.834389684082,-12.4482654687069,429,200     03402,9610,Regional,Lyons, 
130.836574589639866,-12.447034732789472,PK178,Amphitheatre, ,Community Facility,"Accessible,Toilets - Daylight Hours",,21 Geranium St The Gardens,The Gardens,http://www.darwin.nt.gov.au/,Yes,No,No,No,No,No,No,No,Yes,No,No,No,No,No,No,No,No,No,No,No,No,No,No,No,No,No,No,No,No,130.836571872803,-12.4470366967366,430,200     05702,32900,District,Lyons, 
130.83391240994257,-12.446273955432634,PK179,Gardens Oval One,Palmerston Park Oval,Oval,"Accessible,Showers,Toilets - Restricted Access","AFL,Cricket",66 Gilruth Ave The Gardens,The Gardens,http://www.darwin.nt.gov.au/,Yes,No,No,No,No,No,No,No,No,No,Yes,Yes,No,No,No,No,No,No,Yes,No,No,Yes,No,No,No,No,No,No,No,130.834107918767,-12.4463074330382,431,200     03477,36200,Regional,Lyons, 
130.836245256554605,-12.451041855999609,PK180,Gardens Park,Palmerston Park,Park,Accessible,,151 Gardens Rd The Gardens,The Gardens,http://www.darwin.nt.gov.au/,Yes,No,No,No,No,No,No,No,No,No,No,No,No,No,No,No,No,No,No,No,No,No,No,No,No,No,No,No,,130.836232848156,-12.451299502647,432,200     05945,16600,District,Lyons, 
130.83189102602438,-12.453270513089224,PK181,Warrego Park, ,Park,"Accessible,Playground",,176 Smith St Larrakeyah,Larrakeyah,http://www.darwin.nt.gov.au/,Yes,Yes,No,No,No,No,No,No,No,No,No,No,No,No,No,No,No,No,No,No,No,No,No,No,No,No,No,No,,130.831910220132,-12.4532468075632,433,200     02490,688,Neighbourhood,Lyons, 
130.830636626186674,-12.455804576188763,PK182,Malabar Park, ,Park,"Accessible,Playground",,2 Malabar St Larrakeyah,Larrakeyah,http://www.darwin.nt.gov.au/,Yes,Yes,No,No,No,No,No,No,No,No,No,No,No,No,No,No,No,No,No,No,No,No,No,No,No,No,No,No,,130.830649407269,-12.4557854796991,434,200     08139,2120,Neighbourhood,Lyons, 
130.826746024660423,-12.454986142806181,PK183,Kahlin Oval,Mindil Swamp,Oval,"Accessible,Showers,Toilets - Restricted Access",Cricket,42 Temira Cres Larrakeyah,Larrakeyah,http://www.darwin.nt.gov.au/,Yes,No,No,No,No,No,No,No,No,No,Yes,Yes,No,No,No,No,No,No,No,No,No,Yes,No,No,No,No,No,No,No,130.826740066227,-12.4549909816605,435,200     04106,19200,District,Lyons, Cricket Practise Nets
130.83659460123161,-12.455746554684932,PK184,Dashwood Park, ,Park,"Accessible,Playground",,6 Dashwood Pl Darwin City,Darwin City,http://www.darwin.nt.gov.au/,Yes,Yes,No,No,No,No,No,No,No,No,No,No,No,No,No,No,No,No,No,No,No,No,No,No,No,No,No,No,,130.836589269927,-12.4557287260414,436,200     03996,1010,Neighbourhood,Lyons, 
130.836231002987319,-12.457142317942557,PK185,Harriet Park, ,Park,Accessible,,17 Daly St Darwin City,Darwin City,http://www.darwin.nt.gov.au/,Yes,No,No,No,No,No,No,No,No,No,No,No,No,No,No,No,No,No,No,No,No,No,No,No,No,No,No,No,,130.836229275113,-12.4571427616057,437,200     03510,3060,District,Lyons, 
130.832947327542627,-12.45847393670088,PK186,Doctors Gully,Peels Well,Park,Accessible,,26 Doctors Gully Rd Larrakeyah,Larrakeyah,http://www.darwin.nt.gov.au/,Yes,No,No,No,No,No,No,No,No,No,No,No,No,No,No,No,No,No,No,No,No,No,No,No,No,No,No,No,,130.833011254429,-12.4583376888656,438,200     08107,10300,Regional,Lyons, 
130.83369422942755,-12.457495792660998,PK187,Mitchell Street Childcare Centre, ,Childcare Centre,"Accessible,Baby Change,Drinking Fountains,Playground,Playground - Shaded,Toilets - Restricted Access",,127 Mitchell St Larrakeyah,Larrakeyah,http://www.darwin.nt.gov.au/,Yes,Yes,No,Yes,No,No,No,Yes,No,No,Yes,No,Yes,No,No,No,No,No,No,No,No,No,No,No,No,No,No,No,No,130.833658499755,-12.4575246943154,439,200     05584,1300,District,Lyons, 
130.832681412718756,-12.459590823548286,PK188,Doctors Gully Car Park, ,Car Park,Accessible,,31 Doctors Gully Rd Larrakeyah,Larrakeyah,http://www.darwin.nt.gov.au/,Yes,No,No,No,No,No,No,No,No,No,No,No,No,No,No,No,No,No,No,No,No,No,No,No,No,No,No,No,,130.832681435075,-12.4595907442964,440,200     05551,1130,District,Lyons, 
130.835789167514349,-12.458601558381448,PK189,Mitchell St Car Park, ,Car Park,Accessible,,106 Mitchell St Darwin City,Darwin City,http://www.darwin.nt.gov.au/,Yes,No,No,No,No,No,No,No,No,No,No,No,No,No,No,No,No,No,No,No,No,No,No,No,No,No,No,No,,130.83576027136,-12.4586359196383,441,200     04955,3110,District,Lyons, 
130.837968747059733,-12.458600498703259,PK190,Mc Lachlan St Car Park, ,Car Park,Accessible,,100 Smith St Darwin City,Darwin City,http://www.darwin.nt.gov.au/,Yes,No,No,No,No,No,No,No,No,No,No,No,No,No,No,No,No,No,No,No,No,No,No,No,No,No,No,No,,130.837994451891,-12.4586122203417,442,200     04655,2760,District,Lyons, 
130.845443889878339,-12.46232934272528,PK191,Woods and McMinn Street Park, ,Park,Accessible,,9 Mcminn St Darwin City,Darwin City,http://www.darwin.nt.gov.au/,Yes,No,No,No,No,No,No,No,No,No,No,No,No,No,No,No,No,No,No,No,No,No,No,No,No,No,No,No,,130.845476270151,-12.4622776643426,443,200     07264,575,Neighbourhood,Lyons, 
130.844390636384247,-12.459389122596376,PK192,McMinn Street Carpark, ,Car Park,Accessible,,34 Mcminn St Darwin City,Darwin City,http://www.darwin.nt.gov.au/,Yes,No,No,No,No,No,No,No,No,No,No,No,No,No,No,No,No,No,No,No,No,No,No,No,No,No,No,No,,130.844364601413,-12.4593853666755,444,200     05799,10200,District,Lyons, 
130.842528202085305,-12.463878378304079,PK193,Smith Street Mall,The Mall,Commercial,"Accessible,Bicycle/Bike Racks,Playground,Playground - Shaded,Toilets - Daylight Hours,Wifi",,29 The Mall   Darwin City,Darwin City,http://www.darwin.nt.gov.au/,Yes,Yes,No,Yes,Yes,No,No,No,Yes,No,No,No,No,No,Yes,No,No,No,No,No,No,No,No,No,No,No,No,No,No,130.842523902913,-12.4638741929111,445,200     06002,5120,District,Lyons, 
130.841018067673929,-12.46387323562624,PK194,Tamarind Park, ,Park,"Accessible,Wifi",,10 Knuckey St Darwin City,Darwin City,http://www.darwin.nt.gov.au/,Yes,No,No,No,Yes,No,No,No,No,No,No,No,No,No,No,No,No,No,No,No,No,No,No,No,No,No,No,No,,130.841013100201,-12.4638807358277,446,200     02319,849,Regional,Lyons, 
130.842063135466333,-12.462910059031264,PK195,Raintree Park,Stuart Memorial Gardens,Park,"Accessible,Baby Change,Toilets - 24 Hours,Wifi",,52 The Mall   Darwin City,Darwin City,http://www.darwin.nt.gov.au/,Yes,No,No,No,Yes,No,No,No,No,Yes,No,No,Yes,No,No,No,No,No,No,No,No,No,No,No,No,No,No,No,No,130.842062948178,-12.4629103269096,447,200     02358,1880,Regional,Lyons, 
130.836947819959249,-12.463119624822751,PK196,Bicentennial Park,The Esplanade,Park,"Accessible,Baby Change,Bicycle/Walking Paths,Drinking Fountains,Playground,Playground - Shaded,Toilets - 24 Hours,Toilets - Daylight Hours",,109 Esplanade   Darwin City,Darwin City,http://www.darwin.nt.gov.au/,Yes,Yes,No,Yes,No,No,No,Yes,Yes,Yes,No,No,Yes,Yes,No,No,No,No,No,No,No,No,No,No,No,No,No,No,No,130.836835340495,-12.4631100356297,448,200     05706,147500,Regional,Lyons, 
130.840206057401275,-12.462031674454735,PK199,Poinciana Park,Spillet House,Park,Accessible,,65 Smith St Darwin City,Darwin City,http://www.darwin.nt.gov.au/,Yes,No,No,No,No,No,No,No,No,No,No,No,No,No,No,No,No,No,No,No,No,No,No,No,No,No,No,No,,130.840193376046,-12.4620403124126,449,200     02404,971,District,Lyons, 
130.836156260470545,-12.459283877376,PK201,Mitchell Street Carpark, ,Car Park,Accessible,,96 Mitchell St Darwin City,Darwin City,http://www.darwin.nt.gov.au/,Yes,No,No,No,No,No,No,No,No,No,No,No,No,No,No,No,No,No,No,No,No,No,No,No,No,No,No,No,,130.836155256333,-12.45928378174,450,200     07099,1330,District,Lyons, 
130.843118683878913,-12.465402832529708,PK202,Bennett Park, ,Park,Accessible,,4 Bennett St Darwin City,Darwin City,http://www.darwin.nt.gov.au/,Yes,No,No,No,No,No,No,No,No,No,No,No,No,No,No,No,No,No,No,No,No,No,No,No,No,No,No,No,,130.843054999614,-12.4654472641738,451,200     04820,3110,Regional,Lyons, 
130.84484695703145,-12.465048106048691,PK204,Civic Park,Civic Square,Park,Accessible,,17 Harry Chan Ave Darwin City,Darwin City,http://www.darwin.nt.gov.au/,Yes,No,No,No,No,No,No,No,No,No,No,No,No,No,No,No,No,No,No,No,No,No,No,No,No,No,No,No,No,130.845303747295,-12.464898590441,452,200     03981,20000,Regional,Lyons, 
130.854564247316262,-12.379936204871827,PK205,Dudley Park, ,Park,Accessible,,7 Dudley St Rapid Creek,Rapid Creek,http://www.darwin.nt.gov.au/,Yes,No,No,No,No,No,No,No,No,No,No,No,No,No,No,No,No,No,No,No,No,No,No,No,No,No,No,No,,130.854563123714,-12.3799352206175,453,550     00626,1070,Neighbourhood,Chan, 
130.858822367276161,-12.378641544669739,PK206,Clarke Crescent Park, ,Park,"Accessible,Playground",,29 Clarke Cres Rapid Creek,Rapid Creek,http://www.darwin.nt.gov.au/,Yes,Yes,No,No,No,No,No,No,No,No,No,No,No,No,No,No,No,No,No,No,No,No,No,No,No,No,No,No,,130.858854131629,-12.3786424712994,454,550     06116,1440,Neighbourhood,Chan, 
130.86297269799573,-12.382599762607462,PK207,Becker Park, ,Park,Accessible,,6 Becker Pl Rapid Creek,Rapid Creek,http://www.darwin.nt.gov.au/,Yes,No,No,No,No,No,No,No,No,No,No,No,No,No,No,No,No,No,No,No,No,No,No,No,No,No,No,No,,130.862974332112,-12.3826437618938,455,550     01013,894,Neighbourhood,Chan, 
130.8576665769003,-12.384521782160965,PK208,Chrisp Street Oval,Rapid Creek Park,Oval,Accessible,Soccer,12 Valder Cres Rapid Creek,Rapid Creek,http://www.darwin.nt.gov.au/,Yes,No,No,No,No,No,No,No,No,No,No,No,No,No,No,No,No,Yes,No,No,No,No,No,No,No,No,No,No,No,130.857632487501,-12.3843843077756,456,550     00732,22400,District,Chan, 
130.864100520038392,-12.390133966343747,PK209,Stokes Park,Millner Park,Park,"Accessible,Playground",,6 Millner St Millner,Millner,http://www.darwin.nt.gov.au/,Yes,Yes,No,No,No,No,No,No,No,No,No,No,No,No,No,No,No,No,No,No,No,No,No,No,No,No,No,No,,130.86410084494,-12.3901343528953,457,550     01284,998,Neighbourhood,Chan, 
130.857673499976016,-12.389983765620755,PK210,Kelsey Park, ,Park,Accessible,,11 Kelsey Cres Millner,Millner,http://www.darwin.nt.gov.au/,Yes,No,No,No,No,No,No,No,No,No,No,No,No,No,No,No,No,No,No,No,No,No,No,No,No,No,No,No,,130.857605121468,-12.3899157485702,458,550     06190,2850,Neighbourhood,Chan, 
130.860141806517788,-12.394098767782451,PK211,Wong Yung Park,Tong Luck Park,Park,"Accessible,Playground",,8 Tong Luck St Millner,Millner,http://www.darwin.nt.gov.au/,Yes,Yes,No,No,No,No,No,No,No,No,No,No,No,No,No,No,No,No,No,No,No,No,No,No,No,No,No,No,,130.860146452044,-12.3940960447716,459,550     08663,8820,Neighbourhood,Chan, 
130.894716970113393,-12.356399261157549,PK212,Philpott St Park, ,Park,Accessible,,44 Philpott St Muirhead,Muirhead,http://www.darwin.nt.gov.au/,Yes,No,No,No,No,No,No,No,No,No,No,No,No,No,No,No,No,No,No,No,No,No,No,No,No,No,No,No,,130.894694531903,-12.3564108481321,460,550     11818,15000,District,Richardson, 
130.892052208027934,-12.353845855378601,PK213,Colin St Parkland, ,Park,Accessible,,3 Colin St Muirhead,Muirhead,http://www.darwin.nt.gov.au/,Yes,No,No,No,No,No,No,No,No,No,No,No,No,No,No,No,No,No,No,No,No,No,No,No,No,No,No,No,,130.892044036085,-12.3538354782016,461,550     11900,4990,District,Richardson, 
130.897682783105722,-12.35468811484148,PK214,Changsha St Park, ,Park,Accessible,,14 Changsha Cres Muirhead,Muirhead,http://www.darwin.nt.gov.au/,Yes,No,No,No,No,No,No,No,No,No,No,No,No,No,No,No,No,No,No,No,No,No,No,No,No,No,No,No,,130.897630634848,-12.3547106401859,462,550     11919,15600,District,Richardson, 
130.895075914646753,-12.358969235462059,PK215,Ted Rowe Park, ,Park,"Accessible,BBQ",,48 Asche St Muirhead,Muirhead,http://www.darwin.nt.gov.au/,Yes,No,No,No,No,Yes,No,No,No,No,No,No,No,No,No,No,No,No,No,No,No,No,No,No,No,No,No,No,,130.895080395152,-12.3589665622444,463,550     11410,10061,District,Richardson, 
130.893033566821117,-12.360176071172939,PK216,Juliet Shields Park, ,Park,"Accessible,BBQ,Bicycle/Walking Paths,Playground",,3 Moore St Muirhead,Muirhead,http://www.darwin.nt.gov.au/,Yes,Yes,No,No,No,Yes,No,No,No,No,No,No,No,Yes,No,No,No,No,No,No,No,No,No,No,No,No,No,No,,130.893018755127,-12.3601913362916,464,550     10735,5240,District,Richardson, 
130.899477463491792,-12.361724633314127,PK217,Lefevre St Park, ,Park,Accessible,,20 Mahoney St Muirhead,Muirhead,http://www.darwin.nt.gov.au/,Yes,No,No,No,No,No,No,No,No,No,No,No,No,No,No,No,No,No,No,No,No,No,No,No,No,No,No,No,,130.89847632493,-12.3620551052567,465,550     11175,27800,District,Richardson, 
130.893045046617516,-12.362255507908648,PK218,Bailey St Park, ,Park,"Accessible,Bicycle/Walking Paths",,16 Bailey Cct Muirhead,Muirhead,http://www.darwin.nt.gov.au/,Yes,No,No,No,No,No,No,No,No,No,No,No,No,Yes,No,No,No,No,No,No,No,No,No,No,No,No,No,No,,130.8930054975,-12.362468984059,466,550     11055,11210,Neighbourhood,Richardson,Also Lot 10737
130.895267443840339,-12.36215492906795,PK219,William Forster Park, ,Park,"Accessible,BBQ,Bicycle/Walking Paths,Drinking Fountains,Picnic Tables,Playground",,6 Raby St Muirhead,Muirhead,http://www.darwin.nt.gov.au/,Yes,Yes,No,No,No,Yes,Yes,Yes,No,No,No,No,No,Yes,No,No,No,No,No,No,No,No,No,No,No,No,No,No,,130.895267411123,-12.3621549127991,467,550     10893,22900,Regional,Richardson, 
130.894098158665116,-12.366413227755421,PK220,Armstrong Park, ,Park,Accessible,,4 Armstrong St Leanyer,Leanyer,http://www.darwin.nt.gov.au/,Yes,No,No,No,No,No,No,No,No,No,No,No,No,No,No,No,No,No,No,No,No,No,No,No,No,No,No,No,,130.894018813305,-12.3663776019505,468,685     05110,3860,Neighbourhood,Richardson, 
130.89521569051351,-12.366573652383369,PK221,Armstrong Park, ,Park,"Accessible,Playground",,3 Armstrong St Leanyer,Leanyer,http://www.darwin.nt.gov.au/,Yes,Yes,No,No,No,No,No,No,No,No,No,No,No,No,No,No,No,No,No,No,No,No,No,No,No,No,No,No,,130.895316931817,-12.3665299599896,469,685     05156,7390,Neighbourhood,Richardson, 
130.897885489120682,-12.367554661706372,PK222,Cadell Park, ,Park,Accessible,,18 Cadell St Leanyer,Leanyer,http://www.darwin.nt.gov.au/,Yes,No,No,No,No,No,No,No,No,No,No,No,No,No,No,No,No,No,No,No,No,No,No,No,No,No,No,No,,130.897839274609,-12.3676590040305,470,685     05138,4860,Neighbourhood,Richardson, 
130.894887461120334,-12.373540838120919,PK223,Peace Park, ,Park,"Accessible,Bicycle/Walking Paths,Playground",,37 Castlereagh Dr Leanyer,Leanyer,http://www.darwin.nt.gov.au/,Yes,Yes,No,No,No,No,No,No,No,No,No,No,No,Yes,No,No,No,No,No,No,No,No,No,No,No,No,No,No,,130.89481714239,-12.373539022514,471,685     05900,38300,District,Richardson, 
130.892897637196,-12.380568150137959,PK224,Jabiru Park, ,Park,Accessible,,92 Curlew Cct Wulagi,Wulagi,http://www.darwin.nt.gov.au/,Yes,No,No,No,No,No,No,No,No,No,No,No,No,No,No,No,No,No,No,No,No,No,No,No,No,No,No,No,,130.892882591171,-12.3805598155736,472,685     06849,3350,Neighbourhood,Waters, 
130.893042180435259,-12.379861608890739,PK225,Plover Park, ,Park,Accessible,,75 Curlew Cct Wulagi,Wulagi,http://www.darwin.nt.gov.au/,Yes,No,No,No,No,No,No,No,No,No,No,No,No,No,No,No,No,No,No,No,No,No,No,No,No,No,No,No,,130.893075778799,-12.3798916288429,473,685     06848,2500,Neighbourhood,Waters, 
130.893490118157416,-12.379170873101334,PK226,Curlew Park, ,Park,Accessible,,35 Plover St Wulagi,Wulagi,http://www.darwin.nt.gov.au/,Yes,No,No,No,No,No,No,No,No,No,No,No,No,No,No,No,No,No,No,No,No,No,No,No,No,No,No,No,,130.893485752172,-12.3791622952292,474,685     01808,5090,Neighbourhood,Waters, 
130.846537372938656,-12.465204908301496,PK227,Travellers Walk, ,Park,Accessible,,5 Esplanade   Darwin City,Darwin City,http://www.darwin.nt.gov.au/,Yes,No,No,No,No,No,No,No,No,No,No,No,No,No,No,No,No,No,No,No,No,No,No,No,No,No,No,No,,130.846853715866,-12.4651556011055,475,200     06597,655,Neighbourhood,Lyons, 
130.850396752782274,-12.386989289314073,PK228,Nightcliff Public Library,,Public Library,"Accessible,Bicycle/Bike Racks,Toilets - Daylight Hours,Wifi",,10 Pavonia Pl Nightcliff,Nightcliff,,Yes,No,No,No,Yes,No,No,No,Yes,No,No,No,No,No,Yes,No,No,No,No,No,No,No,No,No,No,No,No,No,No,130.85039795951,-12.3869871691629,476,550     09732,,,Chan,
130.850822001256375,-12.387037962078729,PK229,Pavonia Way,Nightcliff Market Area,Park,"Accessible,Playground,Toilets - Daylight Hours",,Pavonia Way Nightcliff,Nightcliff,,Yes,Yes,No,No,No,No,No,No,Yes,No,No,No,No,No,No,No,No,No,No,No,No,No,No,No,No,No,No,No,No,130.850825730274,-12.3870438506098,477,,,,Chan,
130.868310063805097,-12.391127925501998,PK230,Rapid Creek Reserve,,Park,"Accessible,Bicycle/Walking Paths,Drinking Fountains",,91 Freshwater Rd Jingili,Jingili,http://www.darwin.nt.gov.au/,Yes,No,No,No,No,No,No,Yes,No,No,No,No,No,Yes,No,No,No,No,No,No,No,No,No,No,No,No,No,No,No,130.867178702907,-12.3892222060161,478,550     09647,280400,Regional,Chan, 
130.867662630899304,-12.387263566040644,PK231,Jingili Water Gardens,Rapid Creek Water Gardens,Park,"Accessible,BBQ,Bicycle/Walking Paths,Drinking Fountains,Picnic Tables,Playground,Playground - Accessible,Playground - Shaded,Toilets - Daylight Hours",Skateboarding,91 Freshwater Rd Jingili,Jingili,http://www.darwin.nt.gov.au/,Yes,Yes,Yes,Yes,No,Yes,Yes,Yes,Yes,No,No,No,No,Yes,No,No,No,No,No,No,No,No,No,No,Yes,No,No,No,No,130.867574495048,-12.3872841089563,479,550     09647,280400,Regional,Chan, 
130.863428221261074,-12.380905253639524,PK232,Rapid Creek Reserve - North,,Park,"Accessible,Bicycle/Walking Paths,Drinking Fountains",,91 Freshwater Rd Jingili,Rapid Creek,http://www.darwin.nt.gov.au/,Yes,No,No,No,No,No,No,Yes,No,No,No,No,No,Yes,No,No,No,No,No,No,No,No,No,No,No,No,No,No,No,130.862451288844,-12.3800771693073,480,550     09647,280400,Regional,Chan, 
130.915323031145903,-12.401196300811204,PK233,Karama Public Library,,Public Library,"Accessible,Bicycle/Bike Racks,Toilets - Daylight Hours,Wifi",,37 Kalymnos Drive Karama,Karama,,Yes,No,No,No,Yes,No,No,No,Yes,No,No,No,No,No,Yes,No,No,No,No,No,No,No,No,No,No,No,No,No,No,130.915323562659,-12.4011985184268,481,,,,,
130.845611048248173,-12.464848482676217,PK234,Darwin City Public Library,Civic Centre,Public Library,"Accessible,Bicycle/Bike Racks,Drinking Fountains,Toilets - Daylight Hours,Wifi",,17 Harry Chan Ave Darwin City,Darwin City,http://www.darwin.nt.gov.au/,Yes,No,No,No,Yes,No,No,Yes,Yes,No,No,No,No,No,Yes,No,No,No,No,No,No,No,No,No,No,No,No,No,No,130.845611026849,-12.464850121752,482,200     03981,20000,Regional,Lyons, 
130.831677904244231,-12.414297178291809,PK235,Lake Alexander,East Point Reserve,Outdoor Recreation,"Accessible,BBQ,Bicycle/Walking Paths,Drinking Fountains,Exercise Equipment,Picnic Tables,Playground,Playground - Accessible,Playground - Shaded,Showers,Toilets - Daylight Hours","Swimming,Watercraft",152 Alec Fong Lim Dr East Point,East Point,http://www.darwin.nt.gov.au/,Yes,Yes,Yes,Yes,No,Yes,Yes,Yes,Yes,No,No,Yes,No,Yes,No,Yes,No,No,No,No,No,No,No,Yes,No,Yes,No,No,No,130.831868865138,-12.4142648949711,483,200     05775,1907000,Regional,Lyons, 
130.903789805431103,-12.394103407653514,PK236,Malak Childcare Centre,Malak Oval,Childcare Centre,"Accessible,Playground,Playground - Shaded",,13 Malak Cres Malak,Malak,,Yes,Yes,No,Yes,No,No,No,No,No,No,No,No,No,No,No,No,No,No,No,No,No,No,No,No,No,No,No,No,No,130.903805592228,-12.3940589042668,484,685     02284,,,Waters,
130.903700042179992,-12.393524465236659,PK237,Malak Community Centre,Malak Oval,Community Centre,"Accessible,Toilets - Restricted Access",,13 Malak Cres Malak,Malak,,Yes,No,No,No,No,No,No,No,No,No,Yes,No,No,No,No,No,No,No,No,No,No,No,No,No,No,No,No,No,No,130.903786171322,-12.3935580055285,485,685     02284,,,Waters,
130.888257818772956,-12.359339233059174,PK238,Lyons Community Centre,Garanmanuk Park,Community Centre,"Accessible,Playground,Playground - Shaded,Toilets - Restricted Access",,25 Damabila Dr Lyons,Lyons,,Yes,Yes,No,Yes,No,No,No,No,No,No,Yes,No,No,No,No,No,No,No,No,No,No,No,No,No,No,No,No,No,No,130.888262440615,-12.3593895936829,486,550     09800,,,Richardson,
130.844325460334971,-12.431524168225188,PK239,Parap Market Area,Parap Shops,Commercial,"Accessible,Bicycle/Bike Racks,Toilets - Daylight Hours",,,Parap,,Yes,No,No,No,No,No,No,No,Yes,No,No,No,No,No,Yes,No,No,No,No,No,No,No,No,No,No,No,No,No,No,130.844218595443,-12.4313582222032,487,,,,,
130.862563709342538,-12.3863690481598,PK240,Rapid Creek Market Area,Rapid Creek Shops,Commercial,Accessible,,,Rapid Creek,,Yes,No,No,No,No,No,No,No,No,No,No,No,No,No,No,No,No,No,No,No,No,No,No,No,No,No,No,No,No,130.862634506807,-12.3867959235143,488,,,,,Weekend Public Markets
130.850774852361042,-12.387303589926452,PK241,Nightcliff Market Area,Pavonia Way,Commercial,Accessible,,,Nightcliff,,Yes,No,No,No,No,No,No,No,No,No,No,No,No,No,No,No,No,No,No,No,No,No,No,No,No,No,No,No,No,130.850752668881,-12.3871890033783,489,,,,,Public Market - Sundays
130.832024511185494,-12.444302339281112,PK242,Mindil Market Area,Mindil Beach,Commercial,Accessible,,,The Gardens,,Yes,No,No,No,No,No,No,No,No,No,No,No,No,No,No,No,No,No,No,No,No,No,No,No,No,No,No,No,No,130.831917212817,-12.4447068275457,490,,,,,Public Market - Thurs/Sun Dry S
130.919195800954384,-12.415467450933248,PK243,Boulter Road Animal Pound, ,Council Facility,Accessible,,Boulter Road,Berrimah,,Yes,No,No,No,No,No,No,No,No,No,No,No,No,No,No,No,No,No,No,No,No,No,No,No,No,No,No,No,No,130.919194812142,-12.4154683202695,491,,,,,Animal Pound
130.826006751172628,-12.454339041640642,PK244,Kahlin Foreshore,,Park,"Accessible,Playground",,,,,Yes,Yes,No,No,No,No,No,No,No,No,No,No,No,No,No,No,No,No,No,No,No,No,No,No,No,No,No,No,No,130.826029485851,-12.4542464018532,492,Road Reserve,,,,
130.924673186660357,-12.38859756376989,PK245,Shoal Bay Waste & Recycling Facility,,Council Facility,Accessible,,,Holmes,,Yes,No,No,No,No,No,No,No,No,No,No,No,No,No,No,No,No,No,No,No,No,No,No,No,No,No,No,No,No,130.924620362028,-12.3881598904324,493,,,,,
130.892022432497413,-12.390497079454155,PK246,Anula Oval,Yanyula Park,Oval,Accessible,Rugby,59 Yanyula Dr Anula,Anula,http://www.darwin.nt.gov.au/,Yes,No,No,No,No,No,No,No,No,No,No,No,No,No,No,No,No,No,No,No,No,No,No,No,No,No,Yes,No,No,130.892023818536,-12.3904767045586,494,685     07019,95900,District,Waters, 
130.841957570969413,-12.428488537593008,PK247,Parap Tennis Courts, ,Outdoor Recreation,Accessible,Tennis,77 Ross Smith Ave Parap,Parap,http://www.darwin.nt.gov.au/,Yes,No,No,No,No,No,No,No,No,No,No,No,No,No,No,No,No,No,No,No,Yes,No,No,No,No,No,No,No,No,130.841864541186,-12.4287013131379,495,200     05292,38000,Regional,Lyons,
130.855038399170525,-12.440908137452436,PK248,Bayview Sea Wall, ,Park,"Accessible,Bicycle/Walking Paths",,57 Bayview Bvd Bayview,Bayview,http://www.darwin.nt.gov.au/,Yes,No,No,No,No,No,No,No,No,No,No,No,No,Yes,No,No,No,No,No,No,No,No,No,No,No,No,No,No,,130.85543728354,-12.441069711327,496,200     05988,163300,District,Lyons, 
130.852746023395071,-12.438535661495008,PK249,Bayview Sea Wall, ,Park,"Accessible,Bicycle/Walking Paths",,57 Bayview Bvd Bayview,Bayview,http://www.darwin.nt.gov.au/,Yes,No,No,No,No,No,No,No,No,No,No,No,No,Yes,No,No,No,No,No,No,No,No,No,No,No,No,No,No,,130.852686782707,-12.4386537475851,497,200     05988,163300,District,Lyons, 
130.859093024509633,-12.396218003462952,PK250,Velodrome,Bagot Park,Outdoor Recreation,"Accessible,Bicycle/Walking Paths",Cycling,55 Mcmillans Rd Millner,Millner,http://www.darwin.nt.gov.au/,Yes,No,No,No,No,No,No,No,No,No,No,No,No,Yes,No,No,No,No,No,No,No,No,Yes,No,No,No,No,No,No,130.859080404102,-12.3962205663857,498,055     01676,96900,Regional,Chan, 
130.857449596665873,-12.383559433185964,PK251,Chrisp Street Tennis Courts,Rapid Creek Park,Outdoor Recreation,Accessible,Tennis,12 Valder Cres Rapid Creek,Rapid Creek,http://www.darwin.nt.gov.au/,Yes,No,No,No,No,No,No,No,No,No,No,No,No,No,No,No,No,No,No,No,Yes,No,No,No,No,No,No,No,No,130.85738410413,-12.3835416445273,499,550     00732,22400,District,Chan, 
130.866507570489887,-12.3855088615884,PK252,Jingili Water Gardens Skate Park,Rapid Creek Water Gardens,Outdoor Recreation,"Accessible,BBQ,Bicycle/Walking Paths,Drinking Fountains,Picnic Tables,Toilets - Daylight Hours",Skateboarding,91 Freshwater Rd Jingili,Jingili,http://www.darwin.nt.gov.au/,Yes,No,No,No,No,Yes,Yes,Yes,Yes,No,No,No,No,Yes,No,No,No,No,No,No,No,No,No,No,Yes,No,No,No,No,130.866371675752,-12.3854978256248,500,550     09647,280400,Regional,Chan, 
130.901137200585509,-12.391678354837035,PK253,Malak Greenbelt,,Park,"Accessible,Bicycle/Walking Paths",,"13 Malak Cres Malak
",Malak,,Yes,No,No,No,No,No,No,No,No,No,No,No,No,Yes,No,No,No,No,No,No,No,No,No,No,No,No,No,No,No,130.901151039794,-12.3916127947545,501,"685     02284
",32202,District,Waters,
130.825081334504631,-12.409396006861762,PK254,East Point Reserve,,Park,"Accessible,BBQ,Bicycle/Walking Paths,Drinking Fountains,Exercise Equipment,Picnic Tables,Playground,Showers,Toilets - Daylight Hours",,152 Alec Fong Lim Dr East Point,East Point,http://www.darwin.nt.gov.au/,Yes,Yes,No,No,No,Yes,Yes,Yes,Yes,No,No,Yes,No,Yes,No,Yes,No,No,No,No,No,No,No,No,No,No,No,No,No,130.830229992644,-12.4121915554387,502,200     05775,1907000,Regional,Lyons, 
130.887258763270552,-12.358819007208025,PK255,Garanmanuk Park, ,Park,"Accessible,Bicycle/Walking Paths,Picnic Tables,Playground,Playground - Shaded",,25 Damabila Dr Lyons,Lyons,http://www.darwin.nt.gov.au/,Yes,Yes,No,Yes,No,No,Yes,No,No,No,No,No,No,Yes,No,No,No,No,No,No,No,No,No,No,No,No,No,No,No,130.887932038957,-12.3588037952127,503,550     09800,22000,Regional,Richardson, 
130.845702515692523,-12.464516300809459,PK256,Civic Centre,,Council Facility,"Accessible,Bicycle/Bike Racks,Drinking Fountains,Toilets - Daylight Hours,Wifi",,17 Harry Chan Ave Darwin City,Darwin City,http://www.darwin.nt.gov.au/,Yes,No,No,No,Yes,No,No,Yes,Yes,No,No,No,No,No,Yes,No,No,No,No,No,No,No,No,No,No,No,No,No,No,130.845303747295,-12.464898590441,504,200     03981,20000,Regional,Lyons, 
130.83261391653437,-12.445714362871003,PK257,Mindil Beach,"Casino Drive, Mindil Beach Carpark",Park,"Accessible,BBQ,Bicycle/Walking Paths,Drinking Fountains,Playground,Playground - Shaded,Showers,Toilets - Daylight Hours",,73 Gilruth Ave The Gardens,The Gardens,http://www.darwin.nt.gov.au/,Yes,Yes,No,Yes,No,Yes,No,Yes,Yes,No,No,Yes,No,Yes,No,No,No,No,No,No,No,No,No,No,No,No,No,No,No,130.832090489128,-12.4461412070833,505,200     05772,110500,Regional,Lyons, 
130.839193916480951,-12.416207592758902,PK258,East Point Reserve and Fannie Bay Oval Surrounds,East Point Reserve,Park,Accessible,,152 Alec Fong Lim Dr East Point,East Point,http://www.darwin.nt.gov.au/,Yes,No,No,No,No,No,No,No,No,No,No,No,No,No,No,No,No,No,No,No,No,No,No,No,No,No,No,No,No,130.830229992644,-12.4121915554387,506,200     05775,1907000,Regional,Lyons,Mostly inacessible land
